Object Id	sts_id	sfl_id	msc_record_no	msc_record_address	msc_record_length	msc_record_type	msc_filename	msc_duplicate_hashcode	msc_duplicate_fl	msc_event_type	msc_rec_type_name	msc_call_type	msc_a_number	msc_a_number_normalized	msc_b_number	msc_b_number_normalized	msc_c_number	msc_c_number_normalized	msc_roaming_number	msc_start_dttm	msc_end_dttm	msc_duration	msc_call_direction	msc_call_status	msc_subscriber_type	msc_imsi	msc_imei	msc_address	msc_record_sequence_no	msc_ldc_indicator	msc_ldc_sequence_no	msc_ldc_correlation_id	msc_ldc_status	msc_ldc_tag	msc_bearer_service	msc_cell_id	msc_roaming_partner	msc_switch_name	msc_inc_route	msc_inc_operator_name	msc_out_route	msc_out_operator_name	msc_smsc_address	msc_lrn	msc_is_interconnect	msc_is_roaming	msc_part_key	msc_extra1	msc_extra2	msc_extra3	msc_extra4	msc_extra5	msc_extra6	msc_extra7	msc_extra8	msc_extra9	msc_extra10
100003	62	4002	2	175	174	CDR	MSC_0001241019_101112.txt	320244660	false	Voice	MOC	NLD	9986113288	9986113288	9367853756	9367853756				03/08/2020 06:10:00	03/08/2020 05:10:00	60	Outgoing	Normal Release	Prepaid	177456192345711	9986113288	MSC2	1	0					1	1	1	Ericssion							false	false	6										
100032	62	4002	31	5420	184	CDR	MSC_0001241019_101112.txt	1083824401	false	Voice	CF	International	9367453766	9367453766	9767453756	9767453756				03/08/2020 17:09:00	03/08/2020 16:09:00	60	Outgoing	Normal Release	Postpaid	177456192345709	9367453766	MSC2	1	0					1	1	1	Ericssion							false	false	17										
100042	62	4002	41	7224	174	CDR	MSC_0001241019_101112.txt	1346278971	false	Voice	CF	NLD	9986713287	9986713287	9887453756	9887453756				03/08/2020 05:03:00	03/08/2020 04:03:00	60	Outgoing	Normal Release	Postpaid	177456192345715	9986713287	MSC2	1	0					1	1	1	Ericssion							false	false	5										
100058	62	4002	57	10087	175	CDR	MSC_0001241019_101112.txt	1411498907	false	Voice	MTC	NLD	9986713287	9986713287	9367873756	9367873756				03/08/2020 23:10:00	03/08/2020 22:10:00	60	Incoming	Normal Release	Postpaid	177456192345715	9986713287	MSC8	1	0					1	1	1	Ericssion							false	false	23										
100069	62	4002	68	12053	175	CDR	MSC_0001241019_101112.txt	363564276	false	Voice	MTC	NLD	9986113288	9986113288	9367853756	9367853756				03/08/2020 18:12:00	03/08/2020 16:12:00	120	Incoming	Normal Release	Prepaid	177456192345711	9986113288	MSC9	1	0					1	1	1	Ericssion							false	false	18										
100094	62	4002	93	16525	176	CDR	MSC_0001241019_101112.txt	345564245	false	Voice	MOC	Local	9986113287	9986113287	9777453756	9777453756				03/08/2020 13:12:00	03/08/2020 12:02:00	70	Outgoing	Normal Release	Prepaid	177456192345710	9986113287	MSC5	1	0					1	1	1	Ericssion							false	false	13										
100096	62	4002	95	16888	176	CDR	MSC_0001241019_101112.txt	298104596	false	Voice	MOC	Local	9986113288	9986113288	9367853756	9367853756				03/08/2020 00:01:00	03/07/2020 23:01:00	60	Outgoing	Normal Release	Prepaid	177456192345711	9986113288	MSC7	1	0					1	1	1	Ericssion							false	false	0										
100118	62	4002	117	20878	177	CDR	MSC_0001241019_101112.txt	320212175	false	Voice	MOC	Local	9986113777	9986113777	9367853756	9367853756				03/08/2020 06:07:00	03/08/2020 05:07:00	60	Outgoing	Normal Release	Postpaid	177456192345713	9986113777	MSC9	1	0					1	1	1	Ericssion							false	false	6										
100120	62	4002	119	21234	177	CDR	MSC_0001241019_101112.txt	352644179	false	Voice	MTC	Local	9986113289	9986113289	9777453756	9777453756				03/08/2020 15:10:00	03/08/2020 14:00:00	70	Incoming	Normal Release	Postpaid	177456192345712	9986113289	MSC1	1	0					1	1	1	Ericssion							false	false	15										
100141	62	4002	140	25006	185	CDR	MSC_0001241019_101112.txt	1379039386	false	Voice	MTC	International	9986713288	9986713288	9369313756	9369313756				03/08/2020 14:09:00	03/08/2020 12:09:00	120	Incoming	Normal Release	Prepaid	177456192345716	9986713288	MSC2	1	0					1	1	1	Ericssion							false	false	14										
100179	62	4002	178	31822	177	CDR	MSC_0001241019_101112.txt	302064181	false	SMS	MT SMS	Local	9986113287	9986113287	9845300381	9845300381				03/08/2020 01:07:00	03/08/2020 01:07:00	0	Incoming	Normal Release	Prepaid	177456192345710	9986113287	MSC10	1	0					1	1	1	Ericssion							false	false	1										
100183	62	4002	182	32547	184	CDR	MSC_0001241019_101112.txt	1400759514	false	SMS	MT SMS	International	9986713288	9986713288	9367873756	9367873756				03/08/2020 20:11:00	03/08/2020 20:11:00	0	Incoming	Normal Release	Prepaid	177456192345716	9986713288	MSC4	1	0					1	1	1	Ericssion							false	false	20										
100222	62	4002	221	39555	177	CDR	MSC_0001241019_101112.txt	377664243	false	SMS	MT SMS	Local	9986113289	9986113289	9367453756	9367453756				03/08/2020 22:07:00	03/08/2020 22:07:00	0	Incoming	Normal Release	Postpaid	177456192345712	9986113289	MSC3	1	0					1	1	1	Ericssion							false	true	22										
100004	62	4002	3	350	177	CDR	MSC_0001241019_101112.txt	-633240681	false	Voice	MOC	Local	9345637669	9345637669	9767453756	9767453756				03/17/2020 03:09:00	03/17/2020 01:49:00	80	Outgoing	Normal Release	Postpaid	177456192345708	9345637669	MSC3	1	0					1	1	1	Ericssion							false	true	3										
100139	62	4002	138	24654	175	CDR	MSC_0001241019_101112.txt	1133484276	false	Voice	MTC	NLD	9986113288	9986113288	9845300379	9845300379				03/17/2020 16:04:00	03/17/2020 14:44:00	80	Incoming	Normal Release	Prepaid	177456192345711	9986113288	MSC10	1	0					1	1	1	Ericssion							false	false	16										
100158	62	4002	157	28056	185	CDR	MSC_0001241019_101112.txt	-597180617	false	SMS	MO SMS	International	9345637669	9345637669	9367853756	9367853756				03/17/2020 13:10:00	03/17/2020 13:10:00	0	Outgoing	Normal Release	Postpaid	177456192345708	9345637669	MSC9	1	0					1	1	1	Ericssion							false	false	13										
100166	62	4002	165	29492	177	CDR	MSC_0001241019_101112.txt	2120638905	false	SMS	MT SMS	Local	9986713289	9986713289	9367873756	9367873756				03/17/2020 04:09:00	03/17/2020 04:09:00	0	Incoming	Normal Release	Postpaid	177456192345717	9986713289	MSC7	1	0					1	1	1	Ericssion							false	false	4										
100180	62	4002	179	32000	184	CDR	MSC_0001241019_101112.txt	1097544565	false	SMS	MT SMS	International	9986113287	9986113287	9845300379	9845300379				03/17/2020 06:05:00	03/17/2020 06:05:00	0	Incoming	Normal Release	Prepaid	177456192345710	9986113287	MSC1	1	0					1	1	1	Ericssion							false	false	6										
100198	62	4002	197	35262	184	CDR	MSC_0001241019_101112.txt	1104684245	false	SMS	MT SMS	International	9986113287	9986113287	9367853756	9367853756				03/17/2020 08:04:00	03/17/2020 08:04:00	0	Incoming	Normal Release	Prepaid	177456192345710	9986113287	MSC9	1	0					1	1	1	Ericssion							false	false	8										
100213	62	4002	212	37939	174	CDR	MSC_0001241019_101112.txt	-2105868358	false	SMS	MO SMS	NLD	9986713288	9986713288	9887453756	9887453756				03/17/2020 23:10:00	03/17/2020 23:10:00	0	Outgoing	Normal Release	Prepaid	177456192345716	9986713288	MSC4	1	0					1	1	1	Ericssion							false	false	23										
100250	62	4002	249	44619	177	CDR	MSC_0001241019_101112.txt	-633240681	false	Voice	MTC	Local	9345637669	9345637669	9767453756	9767453756				03/17/2020 03:09:00	03/17/2020 01:49:00	80	Outgoing	Normal Release	Postpaid	177456192345708	9345637669	MSC3	1	0					1	1	1	Ericssion							false	true	3										
100007	62	4002	6	881	177	CDR	MSC_0001241019_101112.txt	132952111	false	Voice	MTC	Local	9986113777	9986113777	9369313756	9369313756				03/06/2020 02:06:00	03/06/2020 01:06:00	60	Incoming	Normal Release	Postpaid	177456192345713	9986113777	MSC6	1	0					1	1	1	Ericssion							false	false	2										
100024	62	4002	23	3973	178	CDR	MSC_0001241019_101112.txt	176184627	false	Voice	MOC	Local	9986113289	9986113289	9369313756	9369313756				03/06/2020 14:09:00	03/06/2020 12:09:00	120	Outgoing	Normal Release	Postpaid	177456192345712	9986113289	MSC4	1	0					1	1	1	Ericssion							false	false	14										
100026	62	4002	25	4338	185	CDR	MSC_0001241019_101112.txt	1220519033	false	Voice	MTC	International	9986713289	9986713289	9777453756	9777453756				03/06/2020 18:07:00	03/06/2020 17:07:00	60	Incoming	Normal Release	Postpaid	177456192345717	9986713289	MSC6	1	0					1	1	1	Ericssion							false	false	18										
100083	62	4002	82	14561	177	CDR	MSC_0001241019_101112.txt	889065041	false	Voice	MOC	Local	9367453766	9367453766	9767453756	9767453756				03/06/2020 11:03:00	03/06/2020 10:25:00	38	Outgoing	Normal Release	Postpaid	177456192345709	9367453766	MSC4	1	0					1	1	1	Ericssion							false	false	11										
100124	62	4002	123	21941	185	CDR	MSC_0001241019_101112.txt	165504181	false	Voice	MOC	International	9986113287	9986113287	7734140377	7734140377				03/06/2020 11:11:00	03/06/2020 09:11:00	120	Outgoing	Normal Release	Prepaid	177456192345710	9986113287	MSC5	1	0					1	1	1	Ericssion							false	false	11										
100125	62	4002	124	22127	174	CDR	MSC_0001241019_101112.txt	129564245	false	Voice	MOC	NLD	9986113287	9986113287	9845300379	9845300379				03/06/2020 01:12:00	03/06/2020 00:02:00	70	Outgoing	Normal Release	Prepaid	177456192345710	9986113287	MSC6	1	0					1	1	1	Ericssion							false	false	1										
100195	62	4002	194	34724	175	CDR	MSC_0001241019_101112.txt	1174019097	false	SMS	MT SMS	NLD	9986713289	9986713289	9367853756	9367853756				03/06/2020 05:12:00	03/06/2020 05:12:00	0	Incoming	Normal Release	Postpaid	177456192345717	9986713289	MSC6	1	0					1	1	1	Ericssion							false	false	5										
100220	62	4002	219	39193	176	CDR	MSC_0001241019_101112.txt	143484788	false	SMS	MO SMS	Local	9986113288	9986113288	9845300381	9845300381				03/06/2020 05:04:00	03/06/2020 05:04:00	0	Outgoing	Normal Release	Prepaid	177456192345711	9986113288	MSC1	1	0					1	1	1	Ericssion							false	false	5										
100243	62	4002	242	43354	185	CDR	MSC_0001241019_101112.txt	1206239417	false	MMS	MO MMS	International	9986713289	9986713289	7734140377	7734140377				03/06/2020 14:09:00	03/06/2020 14:09:00	0	Outgoing	Normal Release	Postpaid	177456192345717	9986713289	MSC4	1	0					1	1	1	Ericssion							false	false	14										
100009	62	4002	8	1237	184	CDR	MSC_0001241019_101112.txt	888924276	false	Voice	MOC	International	9986113288	9986113288	9845300381	9845300381				03/14/2020 20:08:00	03/14/2020 18:58:00	70	Outgoing	Normal Release	Prepaid	177456192345711	9986113288	MSC8	1	0					1	1	1	Ericssion							false	false	20										
100043	62	4002	42	7399	176	CDR	MSC_0001241019_101112.txt	860212687	false	Voice	MTC	NLD	9986113777	9986113777	7734140377	7734140377				03/14/2020 12:07:00	03/14/2020 10:07:00	120	Incoming	Normal Release	Postpaid	177456192345713	9986113777	MSC3	1	0					1	1	1	Ericssion							false	true	12										
100051	62	4002	50	8831	175	CDR	MSC_0001241019_101112.txt	1573244977	false	Voice	MOC	NLD	9367453766	9367453766	9845300379	9845300379				03/14/2020 09:06:00	03/14/2020 07:46:00	80	Outgoing	Normal Release	Postpaid	177456192345709	9367453766	MSC1	1	0					1	1	1	Ericssion							false	false	9										
100055	62	4002	54	9544	178	CDR	MSC_0001241019_101112.txt	1850159355	false	Voice	MOC	Local	9986713287	9986713287	9367453756	9367453756				03/14/2020 01:01:00	03/13/2020 23:01:00	120	Outgoing	Normal Release	Postpaid	177456192345715	9986713287	MSC5	1	0					1	1	1	Ericssion							false	false	1										
100065	62	4002	64	11326	175	CDR	MSC_0001241019_101112.txt	824364276	false	Voice	MOC	NLD	9986113288	9986113288	9767453756	9767453756				03/14/2020 02:12:00	03/14/2020 00:12:00	120	Outgoing	Normal Release	Prepaid	177456192345711	9986113288	MSC5	1	0					1	1	1	Ericssion							false	false	2										
100087	62	4002	86	15270	184	CDR	MSC_0001241019_101112.txt	856644117	false	Voice	MTC	International	9986113287	9986113287	9845300381	9845300381				03/14/2020 11:10:00	03/14/2020 10:10:00	60	Incoming	Normal Release	Prepaid	177456192345710	9986113287	MSC8	1	0					1	1	1	Ericssion							false	false	11										
100104	62	4002	103	18334	176	CDR	MSC_0001241019_101112.txt	1918919514	false	Voice	MTC	Local	9986713288	9986713288	9367853756	9367853756				03/14/2020 20:07:00	03/14/2020 19:07:00	60	Incoming	Normal Release	Prepaid	177456192345716	9986713288	MSC5	1	0					1	1	1	Ericssion							false	false	20										
100115	62	4002	114	20331	184	CDR	MSC_0001241019_101112.txt	863304627	false	Voice	CF	International	9986113289	9986113289	9367873756	9367873756				03/14/2020 13:01:00	03/14/2020 11:51:00	70	Outgoing	Normal Release	Postpaid	177456192345712	9986113289	MSC6	1	0					1	1	1	Ericssion							false	false	13										
100132	62	4002	131	23399	185	CDR	MSC_0001241019_101112.txt	1919038905	false	Voice	MTC	International	9986713289	9986713289	7734140377	7734140377				03/14/2020 20:09:00	03/14/2020 19:31:00	38	Incoming	Normal Release	Postpaid	177456192345717	9986713289	MSC3	1	0					1	1	1	Ericssion							false	true	20										
100162	62	4002	161	28776	185	CDR	MSC_0001241019_101112.txt	-849181129	false	SMS	MO SMS	International	9345637669	9345637669	9367853756	9367853756				03/14/2020 15:10:00	03/14/2020 15:10:00	0	Outgoing	Normal Release	Postpaid	177456192345708	9345637669	MSC3	1	0					1	1	1	Ericssion							false	true	15										
100192	62	4002	191	34186	176	CDR	MSC_0001241019_101112.txt	1886219450	false	SMS	MO SMS	Local	9986713288	9986713288	9369313756	9369313756				03/14/2020 11:02:00	03/14/2020 11:02:00	0	Outgoing	Normal Release	Prepaid	177456192345716	9986713288	MSC3	1	0					1	1	1	Ericssion							false	true	11										
100207	62	4002	206	36872	184	CDR	MSC_0001241019_101112.txt	1915258938	false	SMS	MT SMS	International	9986713288	9986713288	7734140377	7734140377				03/14/2020 19:06:00	03/14/2020 19:06:00	0	Incoming	Normal Release	Prepaid	177456192345716	9986713288	MSC8	1	0					1	1	1	Ericssion							false	false	19										
100214	62	4002	213	38114	175	CDR	MSC_0001241019_101112.txt	1868399355	false	SMS	MT SMS	NLD	9986713287	9986713287	9845300381	9845300381				03/14/2020 06:05:00	03/14/2020 06:05:00	0	Incoming	Normal Release	Postpaid	177456192345715	9986713287	MSC5	1	0					1	1	1	Ericssion							false	false	6										
100215	62	4002	214	38290	176	CDR	MSC_0001241019_101112.txt	1911539578	false	SMS	MT SMS	Local	9986713288	9986713288	9367853756	9367853756				03/14/2020 18:04:00	03/14/2020 18:04:00	0	Incoming	Normal Release	Prepaid	177456192345716	9986713288	MSC6	1	0					1	1	1	Ericssion							false	false	18										
100254	62	4002	253	45325	176	CDR	MSC_0001241019_101112.txt	-1627300146	false	Voice	MTC	NLD	9976113777	9976113777	7734140377	7734140377				03/14/2020 12:07:00	03/14/2020 10:07:00	120	Incoming	Normal Release	Postpaid	177456192345713	9986113777	MSC3	1	0					1	1	1	Ericssion							false	true	12										
100259	62	4002	258	46228	185	CDR	MSC_0001241019_101112.txt	-568474889	false	Voice	MTC	International	9976713279	9976713279	7734140377	7734140377				03/14/2020 20:09:00	03/14/2020 19:31:00	38	Incoming	Normal Release	Postpaid	177456192345717	9986713289	MSC3	1	0					1	1	1	Ericssion							false	true	20										
100012	62	4002	11	1787	185	CDR	MSC_0001241019_101112.txt	481884307	false	Voice	MTC	International	9986113289	9986113289	9367853756	9367853756				03/10/2020 03:04:00	03/10/2020 02:26:00	38	Incoming	Normal Release	Postpaid	177456192345712	9986113289	MSC1	1	0					1	1	1	Ericssion							false	false	3										
100013	62	4002	12	1973	175	CDR	MSC_0001241019_101112.txt	657318959	false	Voice	MTC	NLD	9986173287	9986173287	9767453756	9767453756				03/10/2020 04:05:00	03/10/2020 02:45:00	80	Incoming	Normal Release	Postpaid	177456192345714	9986173287	MSC2	1	0					1	1	1	Ericssion							false	false	4										
100030	62	4002	29	5055	187	CDR	MSC_0001241019_101112.txt	1238204977	false	Voice	MTC	International	9367453766	9367453766	9367853756	9367853756				03/10/2020 12:02:00	03/10/2020 10:02:00	120	Incoming	Normal Release	Postpaid	177456192345709	9367453766	MSC10	1	0					1	1	1	Ericssion							false	false	12										
100075	62	4002	74	13126	174	CDR	MSC_0001241019_101112.txt	1511819450	false	Voice	MTC	NLD	9986713288	9986713288	9367873756	9367873756				03/10/2020 03:02:00	03/10/2020 02:24:00	38	Incoming	Normal Release	Prepaid	177456192345716	9986713288	MSC6	1	0					1	1	1	Ericssion							false	false	3										
100105	62	4002	104	18511	177	CDR	MSC_0001241019_101112.txt	1583879483	false	Voice	MOC	Local	9986713287	9986713287	9369313756	9369313756				03/10/2020 23:03:00	03/10/2020 22:03:00	60	Outgoing	Normal Release	Postpaid	177456192345715	9986713287	MSC6	1	0					1	1	1	Ericssion							false	false	23										
100119	62	4002	118	21056	177	CDR	MSC_0001241019_101112.txt	475044629	false	Voice	MTC	Local	9986113287	9986113287	7734140377	7734140377				03/10/2020 01:10:00	03/10/2020 00:00:00	70	Incoming	Normal Release	Prepaid	177456192345710	9986113287	MSC10	1	0					1	1	1	Ericssion							false	false	1										
100182	62	4002	181	32361	185	CDR	MSC_0001241019_101112.txt	725899663	false	SMS	MT SMS	International	9986173287	9986173287	9367873756	9367873756				03/10/2020 23:08:00	03/10/2020 23:08:00	0	Incoming	Normal Release	Postpaid	177456192345714	9986173287	MSC3	1	0					1	1	1	Ericssion							false	true	23										
100193	62	4002	192	34363	184	CDR	MSC_0001241019_101112.txt	1551719002	false	SMS	MT SMS	International	9986713288	9986713288	9367453756	9367453756				03/10/2020 14:07:00	03/10/2020 14:07:00	0	Incoming	Normal Release	Prepaid	177456192345716	9986713288	MSC4	1	0					1	1	1	Ericssion							false	false	14										
100249	62	4002	248	44432	186	CDR	MSC_0001241019_101112.txt	-1206060617	false	SMS	MT SMS	International	9345637669	9345637669	9367853756	9367853756				03/10/2020 12:02:00	03/10/2020 12:02:00	0	Incoming	Normal Release	Postpaid	177456192345708	9345637669	MSC10	1	0					1	1	1	Ericssion							false	false	12										
100017	62	4002	16	2690	185	CDR	MSC_0001241019_101112.txt	-1231548326	false	Voice	MTC	International	9986713289	9986713289	7734140377	7734140377				03/28/2020 02:02:00	03/28/2020 00:52:00	70	Incoming	Normal Release	Postpaid	177456192345717	9986713289	MSC7	1	0					1	1	1	Ericssion							false	false	2										
100022	62	4002	21	3612	185	CDR	MSC_0001241019_101112.txt	-1202687750	false	Voice	MOC	International	9986713289	9986713289	9767453756	9767453756				03/28/2020 10:03:00	03/28/2020 09:25:00	38	Outgoing	Normal Release	Postpaid	177456192345717	9986713289	MSC2	1	0					1	1	1	Ericssion							false	false	10										
100037	62	4002	36	6318	177	CDR	MSC_0001241019_101112.txt	-2039308144	false	Voice	MTC	Local	9986173287	9986173287	9367453756	9367453756				03/28/2020 16:04:00	03/28/2020 14:54:00	70	Incoming	Normal Release	Postpaid	177456192345714	9986173287	MSC7	1	0					1	1	1	Ericssion							false	false	16										
100046	62	4002	45	7928	175	CDR	MSC_0001241019_101112.txt	389278936	false	Voice	MTC	NLD	9345637669	9345637669	9777453756	9777453756				03/28/2020 23:11:00	03/28/2020 21:51:00	80	Incoming	Normal Release	Postpaid	177456192345708	9345637669	MSC6	1	0					1	1	1	Ericssion							false	false	23										
100048	62	4002	47	8282	177	CDR	MSC_0001241019_101112.txt	-2061088336	false	Voice	MTC	Local	9986173287	9986173287	9367873756	9367873756				03/28/2020 10:01:00	03/28/2020 09:01:00	60	Incoming	Normal Release	Postpaid	177456192345714	9986173287	MSC8	1	0					1	1	1	Ericssion							false	false	10										
100064	62	4002	63	11150	175	CDR	MSC_0001241019_101112.txt	2087604692	false	Voice	MTC	NLD	9986113289	9986113289	9369313756	9369313756				03/28/2020 17:06:00	03/28/2020 16:06:00	60	Incoming	Normal Release	Postpaid	177456192345712	9986113289	MSC4	1	0					1	1	1	Ericssion							false	false	17										
100067	62	4002	66	11680	186	CDR	MSC_0001241019_101112.txt	2051872752	false	Voice	MTC	International	9986113777	9986113777	9845300379	9845300379				03/28/2020 07:08:00	03/28/2020 05:08:00	120	Incoming	Normal Release	Postpaid	177456192345713	9986113777	MSC7	1	0					1	1	1	Ericssion							false	false	7										
100068	62	4002	67	11867	185	CDR	MSC_0001241019_101112.txt	313199448	false	Voice	MTC	International	9345637669	9345637669	9367853756	9367853756				03/28/2020 02:03:00	03/28/2020 00:53:00	70	Incoming	Normal Release	Postpaid	177456192345708	9345637669	MSC8	1	0					1	1	1	Ericssion							false	false	2										
100074	62	4002	73	12940	185	CDR	MSC_0001241019_101112.txt	342539000	false	Voice	MTC	International	9345637669	9345637669	9367453756	9367453756				03/28/2020 10:12:00	03/28/2020 09:12:00	60	Incoming	Normal Release	Postpaid	177456192345708	9345637669	MSC5	1	0					1	1	1	Ericssion							false	false	10										
100089	62	4002	88	15632	186	CDR	MSC_0001241019_101112.txt	-1515542894	false	Voice	MOC	International	9367453766	9367453766	9369313756	9369313756				03/28/2020 08:09:00	03/28/2020 06:49:00	80	Outgoing	Normal Release	Postpaid	177456192345709	9367453766	MSC10	1	0					1	1	1	Ericssion							false	false	8										
100102	62	4002	101	17971	186	CDR	MSC_0001241019_101112.txt	2055384116	false	Voice	MOC	International	9986113289	9986113289	9369313756	9369313756				03/28/2020 08:09:00	03/28/2020 06:09:00	120	Outgoing	Normal Release	Postpaid	177456192345712	9986113289	MSC3	1	0					1	1	1	Ericssion							false	true	8										
100218	62	4002	217	38839	177	CDR	MSC_0001241019_101112.txt	-1198847750	false	SMS	MO SMS	Local	9986713289	9986713289	9367873756	9367873756				03/28/2020 11:07:00	03/28/2020 11:07:00	0	Outgoing	Normal Release	Postpaid	177456192345717	9986713289	MSC9	1	0					1	1	1	Ericssion							false	false	11										
100228	62	4002	227	40641	174	CDR	MSC_0001241019_101112.txt	2026764758	false	SMS	MO SMS	NLD	9986113287	9986113287	9369313756	9369313756				03/28/2020 00:12:00	03/28/2020 00:12:00	0	Outgoing	Normal Release	Prepaid	177456192345710	9986113287	MSC9	1	0					1	1	1	Ericssion							false	false	0										
100236	62	4002	235	42094	175	CDR	MSC_0001241019_101112.txt	2033512112	false	SMS	MT SMS	NLD	9986113777	9986113777	7734140377	7734140377				03/28/2020 02:02:00	03/28/2020 02:02:00	0	Incoming	Normal Release	Postpaid	177456192345713	9986113777	MSC7	1	0					1	1	1	Ericssion							false	false	2										
100241	62	4002	240	42998	177	CDR	MSC_0001241019_101112.txt	2062552112	false	MMS	MO MMS	Local	9986113777	9986113777	9369313756	9369313756				03/28/2020 10:06:00	03/28/2020 10:06:00	0	Outgoing	Normal Release	Postpaid	177456192345713	9986113777	MSC2	1	0					1	1	1	Ericssion							false	false	10										
100002	62	4002	1	0	174	CDR	MSC_0001241019_101112.txt	1001038874	false	Voice	MTC	NLD	9986713288	9986713288	9367453756	9367453756				03/04/2020 05:09:00	03/04/2020 03:59:00	70	Incoming	Normal Release	Prepaid	177456192345716	9986713288	MSC1	1	0					1	1	1	Ericssion							false	false	5										
100005	62	4002	4	528	174	CDR	MSC_0001241019_101112.txt	983038874	false	Voice	MTC	NLD	9986713288	9986713288	9845300381	9845300381				03/04/2020 00:09:00	03/03/2020 23:09:00	60	Incoming	Normal Release	Prepaid	177456192345716	9986713288	MSC4	1	0					1	1	1	Ericssion							false	false	0										
100016	62	4002	15	2513	176	CDR	MSC_0001241019_101112.txt	-43595309	false	Voice	MTC	NLD	9986113289	9986113289	9367853756	9367853756				03/04/2020 01:06:00	03/03/2020 23:06:00	120	Incoming	Normal Release	Postpaid	177456192345712	9986113289	MSC5	1	0					1	1	1	Ericssion							false	false	1										
100035	62	4002	34	5956	174	CDR	MSC_0001241019_101112.txt	1051139066	false	Voice	MTC	NLD	9986713288	9986713288	9777453756	9777453756				03/04/2020 19:04:00	03/04/2020 18:26:00	38	Incoming	Normal Release	Prepaid	177456192345716	9986713288	MSC5	1	0					1	1	1	Ericssion							false	false	19										
100070	62	4002	69	12229	177	CDR	MSC_0001241019_101112.txt	1040278971	false	Voice	MTC	Local	9986713287	9986713287	9367873756	9367873756				03/04/2020 16:03:00	03/04/2020 14:43:00	80	Incoming	Normal Release	Postpaid	177456192345715	9986713287	MSC1	1	0					1	1	1	Ericssion							false	false	16										
100091	62	4002	90	15995	176	CDR	MSC_0001241019_101112.txt	17724757	false	Voice	MOC	Local	9986113287	9986113287	7734140377	7734140377				03/04/2020 18:08:00	03/04/2020 17:08:00	60	Outgoing	Normal Release	Prepaid	177456192345710	9986113287	MSC2	1	0					1	1	1	Ericssion							false	false	18										
100108	62	4002	107	19061	186	CDR	MSC_0001241019_101112.txt	986699481	false	Voice	MTC	International	9986713289	9986713289	9767453756	9767453756				03/04/2020 01:10:00	03/03/2020 23:10:00	120	Incoming	Normal Release	Postpaid	177456192345717	9986713289	MSC9	1	0					1	1	1	Ericssion							false	false	1										
100111	62	4002	110	19619	174	CDR	MSC_0001241019_101112.txt	-43655373	false	Voice	CF	NLD	9986113289	9986113289	9369313756	9369313756				03/04/2020 01:05:00	03/04/2020 00:05:00	60	Outgoing	Normal Release	Postpaid	177456192345712	9986113289	MSC2	1	0					1	1	1	Ericssion							false	false	1										
100234	62	4002	233	41731	185	CDR	MSC_0001241019_101112.txt	-43595309	false	SMS	MT SMS	International	9986113289	9986113289	9367853756	9367853756				03/04/2020 01:06:00	03/04/2020 01:06:00	0	Incoming	Normal Release	Postpaid	177456192345712	9986113289	MSC5	1	0					1	1	1	Ericssion							false	false	1										
100006	62	4002	5	703	177	CDR	MSC_0001241019_101112.txt	258952623	false	Voice	MTC	Local	9986113777	9986113777	9367853756	9367853756				03/07/2020 13:06:00	03/07/2020 12:28:00	38	Incoming	Normal Release	Postpaid	177456192345713	9986113777	MSC5	1	0					1	1	1	Ericssion							false	false	13										
100019	62	4002	18	3062	185	CDR	MSC_0001241019_101112.txt	1004505041	false	Voice	MOC	International	9367453766	9367453766	9845300381	9845300381				03/07/2020 19:07:00	03/07/2020 17:47:00	80	Outgoing	Normal Release	Postpaid	177456192345709	9367453766	MSC9	1	0					1	1	1	Ericssion							false	false	19										
100076	62	4002	75	13301	175	CDR	MSC_0001241019_101112.txt	287724307	false	Voice	MOC	NLD	9986113289	9986113289	9777453756	9777453756				03/07/2020 21:08:00	03/07/2020 20:30:00	38	Outgoing	Normal Release	Postpaid	177456192345712	9986113289	MSC7	1	0					1	1	1	Ericssion							false	false	21										
100086	62	4002	85	15092	177	CDR	MSC_0001241019_101112.txt	294924819	false	Voice	MTC	Local	9986113289	9986113289	9367453756	9367453756				03/07/2020 23:08:00	03/07/2020 22:08:00	60	Incoming	Normal Release	Postpaid	177456192345712	9986113289	MSC7	1	0					1	1	1	Ericssion							false	false	23										
100090	62	4002	89	15819	175	CDR	MSC_0001241019_101112.txt	459558959	false	Voice	MOC	NLD	9986173287	9986173287	9887453756	9887453756				03/07/2020 21:09:00	03/07/2020 20:09:00	60	Outgoing	Normal Release	Postpaid	177456192345714	9986173287	MSC1	1	0					1	1	1	Ericssion							false	false	21										
100117	62	4002	116	20701	176	CDR	MSC_0001241019_101112.txt	244704693	false	Voice	MTC	Local	9986113287	9986113287	9887453756	9887453756				03/07/2020 09:11:00	03/07/2020 08:33:00	38	Incoming	Normal Release	Prepaid	177456192345710	9986113287	MSC8	1	0					1	1	1	Ericssion							false	false	9										
100204	62	4002	203	36342	174	CDR	MSC_0001241019_101112.txt	273504724	false	SMS	MT SMS	NLD	9986113288	9986113288	9767453756	9767453756				03/07/2020 17:11:00	03/07/2020 17:11:00	0	Incoming	Normal Release	Prepaid	177456192345711	9986113288	MSC5	1	0					1	1	1	Ericssion							false	false	17										
100205	62	4002	204	36517	176	CDR	MSC_0001241019_101112.txt	219024693	false	SMS	MO SMS	Local	9986113287	9986113287	9777453756	9777453756				03/07/2020 02:03:00	03/07/2020 02:03:00	0	Outgoing	Normal Release	Prepaid	177456192345710	9986113287	MSC6	1	0					1	1	1	Ericssion							false	false	2										
100229	62	4002	228	40816	186	CDR	MSC_0001241019_101112.txt	989744401	false	SMS	MT SMS	International	9367453766	9367453766	9887453756	9887453756				03/07/2020 15:01:00	03/07/2020 15:01:00	0	Incoming	Normal Release	Postpaid	177456192345709	9367453766	MSC10	1	0					1	1	1	Ericssion							false	false	15										
100238	62	4002	237	42448	185	CDR	MSC_0001241019_101112.txt	1004505041	false	SMS	MO SMS	International	9367453766	9367453766	9845300379	9845300379				03/07/2020 19:07:00	03/07/2020 19:07:00	0	Outgoing	Normal Release	Postpaid	177456192345709	9367453766	MSC9	1	0					1	1	1	Ericssion							false	false	19										
100011	62	4002	10	1609	177	CDR	MSC_0001241019_101112.txt	2052119002	false	Voice	MOC	Local	9986713288	9986713288	9367853756	9367853756				03/16/2020 09:07:00	03/16/2020 07:47:00	80	Outgoing	Normal Release	Prepaid	177456192345716	9986713288	MSC10	1	0					1	1	1	Ericssion							false	false	9										
100062	62	4002	61	10796	176	CDR	MSC_0001241019_101112.txt	1179558959	false	Voice	MTC	NLD	9986173287	9986173287	9367873756	9367873756				03/16/2020 05:09:00	03/16/2020 03:09:00	120	Incoming	Normal Release	Postpaid	177456192345714	9986173287	MSC2	1	0					1	1	1	Ericssion							false	false	5										
100078	62	4002	77	13662	175	CDR	MSC_0001241019_101112.txt	1236979535	false	Voice	MTC	NLD	9986173287	9986173287	9767453756	9767453756				03/16/2020 21:06:00	03/16/2020 19:56:00	70	Incoming	Normal Release	Postpaid	177456192345714	9986173287	MSC9	1	0					1	1	1	Ericssion							false	false	21										
100088	62	4002	87	15455	176	CDR	MSC_0001241019_101112.txt	1768005105	false	Voice	MOC	NLD	9367453766	9367453766	9845300379	9845300379				03/16/2020 15:12:00	03/16/2020 13:12:00	120	Outgoing	Normal Release	Postpaid	177456192345709	9367453766	MSC9	1	0					1	1	1	Ericssion							false	false	15										
100100	62	4002	99	17614	177	CDR	MSC_0001241019_101112.txt	1021944627	false	Voice	MTC	Local	9986113289	9986113289	7734140377	7734140377				03/16/2020 09:05:00	03/16/2020 07:45:00	80	Incoming	Normal Release	Postpaid	177456192345712	9986113289	MSC1	1	0					1	1	1	Ericssion							false	false	9										
100106	62	4002	105	18689	185	CDR	MSC_0001241019_101112.txt	997252175	false	Voice	MOC	International	9986113777	9986113777	9845300381	9845300381				03/16/2020 02:11:00	03/16/2020 01:33:00	38	Outgoing	Normal Release	Postpaid	177456192345713	9986113777	MSC7	1	0					1	1	1	Ericssion							false	false	2										
100170	62	4002	169	30211	175	CDR	MSC_0001241019_101112.txt	1193659663	false	SMS	MO SMS	NLD	9986173287	9986173287	9845300379	9845300379				03/16/2020 09:04:00	03/16/2020 09:04:00	0	Outgoing	Normal Release	Postpaid	177456192345714	9986173287	MSC1	1	0					1	1	1	Ericssion							false	false	9										
100212	62	4002	211	37761	177	CDR	MSC_0001241019_101112.txt	1046904627	false	SMS	MO SMS	Local	9986113289	9986113289	9777453756	9777453756				03/16/2020 16:01:00	03/16/2020 16:01:00	0	Outgoing	Normal Release	Postpaid	177456192345712	9986113289	MSC3	1	0					1	1	1	Ericssion							false	true	16										
100014	62	4002	13	2149	177	CDR	MSC_0001241019_101112.txt	82524307	false	Voice	MTC	Local	9986113289	9986113289	9367853756	9367853756				03/05/2020 12:08:00	03/05/2020 10:48:00	80	Incoming	Normal Release	Postpaid	177456192345712	9986113289	MSC3	1	0					1	1	1	Ericssion							false	true	12										
100056	62	4002	55	9723	186	CDR	MSC_0001241019_101112.txt	225439599	false	Voice	MOC	International	9986173287	9986173287	9767453756	9767453756				03/05/2020 04:07:00	03/05/2020 02:07:00	120	Outgoing	Normal Release	Postpaid	177456192345714	9986173287	MSC6	1	0					1	1	1	Ericssion							false	false	4										
100107	62	4002	106	18875	185	CDR	MSC_0001241019_101112.txt	50092047	false	Voice	MTC	International	9986113777	9986113777	9845300381	9845300381				03/05/2020 03:05:00	03/05/2020 02:05:00	60	Incoming	Normal Release	Postpaid	177456192345713	9986113777	MSC8	1	0					1	1	1	Ericssion							false	false	3										
100114	62	4002	113	20146	184	CDR	MSC_0001241019_101112.txt	64104115	false	Voice	CF	International	9986113289	9986113289	7734140377	7734140377				03/05/2020 07:01:00	03/05/2020 06:01:00	60	Outgoing	Normal Release	Postpaid	177456192345712	9986113289	MSC5	1	0					1	1	1	Ericssion							false	false	7										
100136	62	4002	135	24122	177	CDR	MSC_0001241019_101112.txt	46224755	false	Voice	MTC	Local	9986113289	9986113289	9777453756	9777453756				03/05/2020 02:03:00	03/05/2020 00:43:00	80	Incoming	Normal Release	Postpaid	177456192345712	9986113289	MSC7	1	0					1	1	1	Ericssion							false	false	2										
100140	62	4002	139	24830	175	CDR	MSC_0001241019_101112.txt	-1648801065	false	Voice	MOC	NLD	9345637669	9345637669	9367873756	9367873756				03/05/2020 09:03:00	03/05/2020 08:03:00	60	Outgoing	Normal Release	Postpaid	177456192345708	9345637669	MSC1	1	0					1	1	1	Ericssion							false	false	9										
100149	62	4002	148	26451	175	CDR	MSC_0001241019_101112.txt	75384565	false	Voice	MOC	NLD	9986113287	9986113287	9845300381	9845300381				03/05/2020 10:09:00	03/05/2020 08:49:00	80	Outgoing	Normal Release	Prepaid	177456192345710	9986113287	MSC10	1	0					1	1	1	Ericssion							false	false	10										
100164	62	4002	163	29140	175	CDR	MSC_0001241019_101112.txt	803024913	false	SMS	MT SMS	NLD	9367453766	9367453766	7734140377	7734140377				03/05/2020 11:09:00	03/05/2020 11:09:00	0	Incoming	Normal Release	Postpaid	177456192345709	9367453766	MSC5	1	0					1	1	1	Ericssion							false	false	11										
100223	62	4002	222	39733	185	CDR	MSC_0001241019_101112.txt	781364593	false	SMS	MT SMS	International	9367453766	9367453766	9367453756	9367453756				03/05/2020 05:08:00	03/05/2020 05:08:00	0	Incoming	Normal Release	Postpaid	177456192345709	9367453766	MSC4	1	0					1	1	1	Ericssion							false	false	5										
100251	62	4002	250	44797	177	CDR	MSC_0001241019_101112.txt	1889977809	false	Voice	MTC	Local	9976113279	9976113279	9367753756	9367753756				03/05/2020 12:08:00	03/05/2020 10:48:00	80	Incoming	Normal Release	Postpaid	177456192345712	9986113289	MSC3	1	0					1	1	1	Ericssion							false	true	12										
100258	62	4002	257	46041	186	CDR	MSC_0001241019_101112.txt	-432129678	false	Voice	MTC	International	9976113279	9976113279	9369313756	9369313756				03/28/2020 08:09:00	03/28/2020 06:09:00	120	Outgoing	Normal Release	Postpaid	177456192345712	9986113289	MSC3	1	0					1	1	1	Ericssion							false	true	8										
100020	62	4002	19	3248	177	CDR	MSC_0001241019_101112.txt	1958304725	false	Voice	MOC	Local	9986113288	9986113288	9887453756	9887453756				03/27/2020 05:11:00	03/27/2020 03:51:00	80	Outgoing	Normal Release	Prepaid	177456192345711	9986113288	MSC10	1	0					1	1	1	Ericssion							false	false	5										
100031	62	4002	30	5243	176	CDR	MSC_0001241019_101112.txt	-1274567878	false	Voice	CF	Local	9986713289	9986713289	9367453756	9367453756				03/27/2020 14:05:00	03/27/2020 13:27:00	38	Outgoing	Normal Release	Postpaid	177456192345717	9986713289	MSC1	1	0					1	1	1	Ericssion							false	false	14										
100034	62	4002	33	5780	175	CDR	MSC_0001241019_101112.txt	-2110827632	false	Voice	MTC	NLD	9986173287	9986173287	9887453756	9887453756				03/27/2020 20:12:00	03/27/2020 19:12:00	60	Incoming	Normal Release	Postpaid	177456192345714	9986173287	MSC4	1	0					1	1	1	Ericssion							false	false	20										
100138	62	4002	137	24478	175	CDR	MSC_0001241019_101112.txt	223259512	false	Voice	MTC	NLD	9345637669	9345637669	9367853756	9367853756				03/27/2020 01:04:00	03/27/2020 00:26:00	38	Incoming	Normal Release	Postpaid	177456192345708	9345637669	MSC9	1	0					1	1	1	Ericssion							false	false	1										
100142	62	4002	141	25192	176	CDR	MSC_0001241019_101112.txt	2011884277	false	Voice	MTC	Local	9986113288	9986113288	9767453756	9767453756				03/27/2020 20:04:00	03/27/2020 18:44:00	80	Incoming	Normal Release	Prepaid	177456192345711	9986113288	MSC3	1	0					1	1	1	Ericssion							false	true	20										
100150	62	4002	149	26627	184	CDR	MSC_0001241019_101112.txt	1939824213	false	SMS	MT SMS	International	9986113288	9986113288	9887453756	9887453756				03/27/2020 00:03:00	03/27/2020 00:03:00	0	Incoming	Normal Release	Prepaid	177456192345711	9986113288	MSC1	1	0					1	1	1	Ericssion							false	false	0										
100151	62	4002	150	26812	177	CDR	MSC_0001241019_101112.txt	-1583942894	false	SMS	MT SMS	Local	9367453766	9367453766	9845300381	9845300381				03/27/2020 13:09:00	03/27/2020 13:09:00	0	Incoming	Normal Release	Postpaid	177456192345709	9367453766	MSC2	1	0					1	1	1	Ericssion							false	false	13										
100186	62	4002	185	33094	177	CDR	MSC_0001241019_101112.txt	1976304244	false	SMS	MT SMS	Local	9986113289	9986113289	9845300379	9845300379				03/27/2020 10:11:00	03/27/2020 10:11:00	0	Incoming	Normal Release	Postpaid	177456192345712	9986113289	MSC7	1	0					1	1	1	Ericssion							false	false	10										
100027	62	4002	26	4524	175	CDR	MSC_0001241019_101112.txt	-2037842702	false	Voice	MTC	NLD	9367453766	9367453766	7734140377	7734140377				03/22/2020 07:04:00	03/22/2020 05:54:00	70	Incoming	Normal Release	Postpaid	177456192345709	9367453766	MSC7	1	0					1	1	1	Ericssion							false	false	7										
100044	62	4002	43	7576	176	CDR	MSC_0001241019_101112.txt	1540552624	false	Voice	MTC	NLD	9986113777	9986113777	9367853756	9367853756				03/22/2020 09:06:00	03/22/2020 07:06:00	120	Incoming	Normal Release	Postpaid	177456192345713	9986113777	MSC4	1	0					1	1	1	Ericssion							false	false	9										
100092	62	4002	91	16172	177	CDR	MSC_0001241019_101112.txt	-136620616	false	Voice	MTC	Local	9345637669	9345637669	9845300379	9845300379				03/22/2020 21:06:00	03/22/2020 20:06:00	60	Incoming	Normal Release	Postpaid	177456192345708	9345637669	MSC3	1	0					1	1	1	Ericssion							false	true	21										
100095	62	4002	94	16702	185	CDR	MSC_0001241019_101112.txt	1540644661	false	Voice	MTC	International	9986113288	9986113288	9845300379	9845300379				03/22/2020 09:10:00	03/22/2020 07:10:00	120	Incoming	Normal Release	Prepaid	177456192345711	9986113288	MSC6	1	0					1	1	1	Ericssion							false	false	9										
100133	62	4002	132	23585	184	CDR	MSC_0001241019_101112.txt	1558464182	false	Voice	MOC	International	9986113287	9986113287	9845300379	9845300379				03/22/2020 14:07:00	03/22/2020 12:57:00	70	Outgoing	Normal Release	Prepaid	177456192345710	9986113287	MSC4	1	0					1	1	1	Ericssion							false	false	14										
100148	62	4002	147	26273	177	CDR	MSC_0001241019_101112.txt	-1749587687	false	Voice	MTC	Local	9986713289	9986713289	9367873756	9367873756				03/22/2020 02:08:00	03/22/2020 00:48:00	80	Incoming	Normal Release	Postpaid	177456192345717	9986713289	MSC9	1	0					1	1	1	Ericssion							false	false	2										
100157	62	4002	156	27880	175	CDR	MSC_0001241019_101112.txt	-2048282830	false	SMS	MO SMS	NLD	9367453766	9367453766	9367453756	9367453756				03/22/2020 04:10:00	03/22/2020 04:10:00	0	Outgoing	Normal Release	Postpaid	177456192345709	9367453766	MSC8	1	0					1	1	1	Ericssion							false	false	4										
100167	62	4002	166	29670	175	CDR	MSC_0001241019_101112.txt	-2062802703	false	SMS	MT SMS	NLD	9367453766	9367453766	9845300379	9845300379				03/22/2020 00:08:00	03/22/2020 00:08:00	0	Incoming	Normal Release	Postpaid	177456192345709	9367453766	MSC8	1	0					1	1	1	Ericssion							false	false	0										
100169	62	4002	168	30032	178	CDR	MSC_0001241019_101112.txt	1733599600	false	SMS	MO SMS	Local	9986173287	9986173287	7734140377	7734140377				03/22/2020 15:03:00	03/22/2020 15:03:00	0	Outgoing	Normal Release	Postpaid	177456192345714	9986173287	MSC10	1	0					1	1	1	Ericssion							false	false	15										
100233	62	4002	232	41545	185	CDR	MSC_0001241019_101112.txt	1573192624	false	SMS	MT SMS	International	9986113777	9986113777	9369313756	9369313756				03/22/2020 18:10:00	03/22/2020 18:10:00	0	Incoming	Normal Release	Postpaid	177456192345713	9986113777	MSC4	1	0					1	1	1	Ericssion							false	false	18										
100246	62	4002	245	43904	174	CDR	MSC_0001241019_101112.txt	1533084246	false	MMS	MT MMS	NLD	9986113287	9986113287	7734140377	7734140377				03/22/2020 07:04:00	03/22/2020 07:04:00	0	Incoming	Normal Release	Prepaid	177456192345710	9986113287	MSC7	1	0					1	1	1	Ericssion							false	false	7										
100008	62	4002	7	1059	177	CDR	MSC_0001241019_101112.txt	-223895885	false	Voice	MOC	Local	9986113289	9986113289	9367853756	9367853756				03/01/2020 23:01:00	03/01/2020 21:51:00	70	Outgoing	Normal Release	Postpaid	177456192345712	9986113289	MSC7	1	0					1	1	1	Ericssion							false	false	23										
100040	62	4002	39	6860	176	CDR	MSC_0001241019_101112.txt	-252307953	false	Voice	MTC	NLD	9986113777	9986113777	9367853756	9367853756				03/01/2020 15:05:00	03/01/2020 13:45:00	80	Incoming	Normal Release	Postpaid	177456192345713	9986113777	MSC10	1	0					1	1	1	Ericssion							false	false	15										
100061	62	4002	60	10620	175	CDR	MSC_0001241019_101112.txt	-306367761	false	Voice	MOC	NLD	9986113777	9986113777	9887453756	9887453756				03/01/2020 00:04:00	04/30/2013 22:44:00	80	Outgoing	Normal Release	Postpaid	177456192345713	9986113777	MSC1	1	0					1	1	1	Ericssion							false	false	0										
100098	62	4002	97	17241	185	CDR	MSC_0001241019_101112.txt	752519545	false	Voice	MTC	International	9986713289	9986713289	9367873756	9367873756				03/01/2020 08:07:00	03/01/2020 07:29:00	38	Incoming	Normal Release	Postpaid	177456192345717	9986713289	MSC9	1	0					1	1	1	Ericssion							false	false	8										
100129	62	4002	128	22858	178	CDR	MSC_0001241019_101112.txt	759358905	false	Voice	MOC	Local	9986713289	9986713289	9367453756	9367453756				03/01/2020 10:01:00	03/01/2020 08:51:00	70	Outgoing	Normal Release	Postpaid	177456192345717	9986713289	MSC10	1	0					1	1	1	Ericssion							false	false	10										
100146	62	4002	145	25912	185	CDR	MSC_0001241019_101112.txt	436004593	false	Voice	MTC	International	9367453766	9367453766	9845300379	9845300379				03/01/2020 05:12:00	03/01/2020 04:34:00	38	Incoming	Normal Release	Postpaid	177456192345709	9367453766	MSC7	1	0					1	1	1	Ericssion							false	false	5										
100226	62	4002	225	40279	175	CDR	MSC_0001241019_101112.txt	500624913	false	SMS	MO SMS	NLD	9367453766	9367453766	9845300379	9845300379				03/01/2020 23:09:00	03/01/2020 23:09:00	0	Outgoing	Normal Release	Postpaid	177456192345709	9367453766	MSC7	1	0					1	1	1	Ericssion							false	false	23										
100010	62	4002	9	1422	186	CDR	MSC_0001241019_101112.txt	1595159033	false	Voice	MOC	International	9986713289	9986713289	9845300381	9845300381				03/11/2020 02:11:00	03/11/2020 00:11:00	120	Outgoing	Normal Release	Postpaid	177456192345717	9986713289	MSC9	1	0					1	1	1	Ericssion							false	false	2										
100021	62	4002	20	3426	185	CDR	MSC_0001241019_101112.txt	805039087	false	Voice	MOC	International	9986173287	9986173287	9845300379	9845300379				03/11/2020 21:07:00	03/11/2020 20:29:00	38	Outgoing	Normal Release	Postpaid	177456192345714	9986173287	MSC1	1	0					1	1	1	Ericssion							false	false	21										
100023	62	4002	22	3798	174	CDR	MSC_0001241019_101112.txt	636504053	false	Voice	MOC	NLD	9986113287	9986113287	9845300381	9845300381				03/11/2020 22:01:00	03/11/2020 21:23:00	38	Outgoing	Normal Release	Prepaid	177456192345710	9986113287	MSC3	1	0					1	1	1	Ericssion							false	true	22										
100028	62	4002	27	4700	177	CDR	MSC_0001241019_101112.txt	-1112461129	false	Voice	MTC	Local	9345637669	9345637669	9367853756	9367853756				03/11/2020 14:02:00	03/11/2020 12:42:00	80	Incoming	Normal Release	Postpaid	177456192345708	9345637669	MSC8	1	0					1	1	1	Ericssion							false	false	14										
100036	62	4002	35	6131	186	CDR	MSC_0001241019_101112.txt	-1098061129	false	Voice	MOC	International	9345637669	9345637669	9367853756	9367853756				03/11/2020 18:02:00	03/11/2020 16:02:00	120	Outgoing	Normal Release	Postpaid	177456192345708	9345637669	MSC6	1	0					1	1	1	Ericssion							false	false	18										
100045	62	4002	44	7753	174	CDR	MSC_0001241019_101112.txt	1626958874	false	Voice	MTC	NLD	9986713288	9986713288	7734140377	7734140377				03/11/2020 11:01:00	03/11/2020 09:41:00	80	Incoming	Normal Release	Prepaid	177456192345716	9986713288	MSC5	1	0					1	1	1	Ericssion							false	false	11										
100049	62	4002	48	8460	184	CDR	MSC_0001241019_101112.txt	564924788	false	Voice	MOC	International	9986113288	9986113288	9367853756	9367853756				03/11/2020 02:08:00	03/11/2020 00:48:00	80	Outgoing	Normal Release	Prepaid	177456192345711	9986113288	MSC9	1	0					1	1	1	Ericssion							false	false	2										
100084	62	4002	83	14739	175	CDR	MSC_0001241019_101112.txt	-1119420617	false	Voice	MOC	NLD	9345637669	9345637669	9369313756	9369313756				03/11/2020 12:06:00	03/11/2020 11:06:00	60	Outgoing	Normal Release	Postpaid	177456192345708	9345637669	MSC5	1	0					1	1	1	Ericssion							false	false	12										
100093	62	4002	92	16350	174	CDR	MSC_0001241019_101112.txt	1652579578	false	Voice	MOC	NLD	9986713288	9986713288	9367853756	9367853756				03/11/2020 18:08:00	03/11/2020 16:58:00	70	Outgoing	Normal Release	Prepaid	177456192345716	9986713288	MSC4	1	0					1	1	1	Ericssion							false	false	18										
100112	62	4002	111	19794	176	CDR	MSC_0001241019_101112.txt	1620359545	false	Voice	CF	Local	9986713289	9986713289	9845300379	9845300379				03/11/2020 09:11:00	03/11/2020 07:51:00	80	Outgoing	Normal Release	Postpaid	177456192345717	9986713289	MSC3	1	0					1	1	1	Ericssion							false	true	9										
100113	62	4002	112	19971	174	CDR	MSC_0001241019_101112.txt	640284276	false	Voice	CF	NLD	9986113288	9986113288	9367873756	9367873756				03/11/2020 23:04:00	03/11/2020 21:04:00	120	Outgoing	Normal Release	Prepaid	177456192345711	9986113288	MSC4	1	0					1	1	1	Ericssion							false	false	23										
100156	62	4002	155	27704	175	CDR	MSC_0001241019_101112.txt	633144627	false	SMS	MT SMS	NLD	9986113289	9986113289	9367853756	9367853756				03/11/2020 21:05:00	03/11/2020 21:05:00	0	Incoming	Normal Release	Postpaid	177456192345712	9986113289	MSC7	1	0					1	1	1	Ericssion							false	false	21										
100200	62	4002	199	35634	176	CDR	MSC_0001241019_101112.txt	1591619066	false	SMS	MT SMS	Local	9986713288	9986713288	9367853756	9367853756				03/11/2020 01:12:00	03/11/2020 01:12:00	0	Incoming	Normal Release	Prepaid	177456192345716	9986713288	MSC1	1	0					1	1	1	Ericssion							false	false	1										
100206	62	4002	205	36694	177	CDR	MSC_0001241019_101112.txt	1281705041	false	SMS	MO SMS	Local	9367453766	9367453766	9369313756	9369313756				03/11/2020 00:07:00	03/11/2020 00:07:00	0	Outgoing	Normal Release	Postpaid	177456192345709	9367453766	MSC7	1	0					1	1	1	Ericssion							false	false	0										
100216	62	4002	215	38467	185	CDR	MSC_0001241019_101112.txt	812299663	false	SMS	MO SMS	International	9986173287	9986173287	9887453756	9887453756				03/11/2020 23:08:00	03/11/2020 23:08:00	0	Outgoing	Normal Release	Postpaid	177456192345714	9986173287	MSC7	1	0					1	1	1	Ericssion							false	false	23										
100219	62	4002	218	39017	175	CDR	MSC_0001241019_101112.txt	593484757	false	SMS	MO SMS	NLD	9986113287	9986113287	9369313756	9369313756				03/11/2020 10:04:00	03/11/2020 10:04:00	0	Outgoing	Normal Release	Prepaid	177456192345710	9986113287	MSC10	1	0					1	1	1	Ericssion							false	false	10										
100235	62	4002	234	41917	176	CDR	MSC_0001241019_101112.txt	1634339578	false	SMS	MO SMS	Local	9986713288	9986713288	7734140377	7734140377				03/11/2020 13:04:00	03/11/2020 13:04:00	0	Outgoing	Normal Release	Prepaid	177456192345716	9986713288	MSC6	1	0					1	1	1	Ericssion							false	false	13										
100240	62	4002	239	42821	176	CDR	MSC_0001241019_101112.txt	633264181	false	MMS	MO MMS	Local	9986113287	9986113287	9367853756	9367853756				03/11/2020 21:07:00	03/11/2020 21:07:00	0	Outgoing	Normal Release	Prepaid	177456192345710	9986113287	MSC1	1	0					1	1	1	Ericssion							false	false	21										
100242	62	4002	241	43176	177	CDR	MSC_0001241019_101112.txt	1666558905	false	MMS	MO MMS	Local	9986713289	9986713289	9845300381	9845300381				03/11/2020 22:01:00	03/11/2020 22:01:00	0	Outgoing	Normal Release	Postpaid	177456192345717	9986713289	MSC3	1	0					1	1	1	Ericssion							false	true	22										
100247	62	4002	246	44079	177	CDR	MSC_0001241019_101112.txt	607912111	false	MMS	MT MMS	Local	9986113777	9986113777	9367853756	9367853756				03/11/2020 14:02:00	03/11/2020 14:02:00	0	Incoming	Normal Release	Postpaid	177456192345713	9986113777	MSC8	1	0					1	1	1	Ericssion							false	false	14										
100252	62	4002	251	44975	174	CDR	MSC_0001241019_101112.txt	-1851009741	false	Voice	MTC	NLD	9976113277	9976113277	9745300371	9745300371				03/11/2020 22:01:00	03/11/2020 21:23:00	38	Outgoing	Normal Release	Prepaid	177456192345710	9986113287	MSC3	1	0					1	1	1	Ericssion							false	true	22										
100015	62	4002	14	2327	185	CDR	MSC_0001241019_101112.txt	968212175	false	Voice	MTC	International	9986113777	9986113777	9369313756	9369313756				03/15/2020 18:07:00	03/15/2020 17:07:00	60	Incoming	Normal Release	Postpaid	177456192345713	9986113777	MSC4	1	0					1	1	1	Ericssion							false	false	18										
100018	62	4002	17	2876	185	CDR	MSC_0001241019_101112.txt	1954919033	false	Voice	MTC	International	9986713289	9986713289	9367873756	9367873756				03/15/2020 06:07:00	03/15/2020 05:29:00	38	Incoming	Normal Release	Postpaid	177456192345717	9986713289	MSC8	1	0					1	1	1	Ericssion							false	false	6										
100066	62	4002	65	11502	177	CDR	MSC_0001241019_101112.txt	928164629	false	Voice	MOC	Local	9986113287	9986113287	9369313756	9369313756				03/15/2020 07:02:00	03/15/2020 05:02:00	120	Outgoing	Normal Release	Prepaid	177456192345710	9986113287	MSC6	1	0					1	1	1	Ericssion							false	false	7										
100099	62	4002	98	17427	186	CDR	MSC_0001241019_101112.txt	1965539578	false	Voice	MTC	International	9986713288	9986713288	9887453756	9887453756				03/15/2020 09:04:00	03/15/2020 07:04:00	120	Incoming	Normal Release	Prepaid	177456192345716	9986713288	MSC10	1	0					1	1	1	Ericssion							false	false	9										
100201	62	4002	200	35811	174	CDR	MSC_0001241019_101112.txt	978624181	false	SMS	MT SMS	NLD	9986113287	9986113287	9369313756	9369313756				03/15/2020 21:03:00	03/15/2020 21:03:00	0	Incoming	Normal Release	Prepaid	177456192345710	9986113287	MSC2	1	0					1	1	1	Ericssion							false	false	21										
100237	62	4002	236	42270	177	CDR	MSC_0001241019_101112.txt	1096639087	false	SMS	MT SMS	Local	9986173287	9986173287	9887453756	9887453756				03/15/2020 06:07:00	03/15/2020 06:07:00	0	Incoming	Normal Release	Postpaid	177456192345714	9986173287	MSC8	1	0					1	1	1	Ericssion							false	false	6										
100025	62	4002	24	4152	185	CDR	MSC_0001241019_101112.txt	1414619481	false	Voice	MOC	International	9986713289	9986713289	9767453756	9767453756				03/09/2020 00:02:00	03/08/2020 23:02:00	60	Outgoing	Normal Release	Postpaid	177456192345717	9986713289	MSC5	1	0					1	1	1	Ericssion							false	false	0										
100038	62	4002	37	6496	185	CDR	MSC_0001241019_101112.txt	409944053	false	Voice	MOC	International	9986113287	9986113287	9369313756	9369313756				03/09/2020 07:05:00	03/09/2020 05:05:00	120	Outgoing	Normal Release	Prepaid	177456192345710	9986113287	MSC8	1	0					1	1	1	Ericssion							false	false	7										
100039	62	4002	38	6682	177	CDR	MSC_0001241019_101112.txt	1141545041	false	Voice	MTC	Local	9367453766	9367453766	9367453756	9367453756				03/09/2020 09:11:00	03/09/2020 08:11:00	60	Incoming	Normal Release	Postpaid	177456192345709	9367453766	MSC9	1	0					1	1	1	Ericssion							false	false	9										
100047	62	4002	46	8104	177	CDR	MSC_0001241019_101112.txt	1134165105	false	Voice	MTC	Local	9367453766	9367453766	9887453756	9887453756				03/09/2020 07:08:00	03/09/2020 06:30:00	38	Incoming	Normal Release	Postpaid	177456192345709	9367453766	MSC7	1	0					1	1	1	Ericssion							false	false	7										
100103	62	4002	102	18158	175	CDR	MSC_0001241019_101112.txt	589219535	false	Voice	MOC	NLD	9986173287	9986173287	9845300381	9845300381				03/09/2020 09:10:00	03/09/2020 07:50:00	80	Outgoing	Normal Release	Postpaid	177456192345714	9986173287	MSC4	1	0					1	1	1	Ericssion							false	false	9										
100189	62	4002	188	33627	186	CDR	MSC_0001241019_101112.txt	-1309860489	false	SMS	MT SMS	International	9345637669	9345637669	9367453756	9367453756				03/09/2020 07:12:00	03/09/2020 07:12:00	0	Incoming	Normal Release	Postpaid	177456192345708	9345637669	MSC10	1	0					1	1	1	Ericssion							false	false	7										
100199	62	4002	198	35447	186	CDR	MSC_0001241019_101112.txt	1468979547	false	SMS	MT SMS	International	9986713287	9986713287	9367853756	9367853756				03/09/2020 15:08:00	03/09/2020 15:08:00	0	Incoming	Normal Release	Postpaid	177456192345715	9986713287	MSC10	1	0					1	1	1	Ericssion							false	false	15										
100203	62	4002	202	36164	177	CDR	MSC_0001241019_101112.txt	-1259880681	false	SMS	MO SMS	Local	9345637669	9345637669	9367853756	9367853756				03/09/2020 21:05:00	03/09/2020 21:05:00	0	Outgoing	Normal Release	Postpaid	177456192345708	9345637669	MSC4	1	0					1	1	1	Ericssion							false	false	21										
100029	62	4002	28	4878	176	CDR	MSC_0001241019_101112.txt	740964660	false	Voice	MTC	Local	9986113288	9986113288	9767453756	9767453756				03/13/2020 03:02:00	03/13/2020 02:02:00	60	Incoming	Normal Release	Prepaid	177456192345711	9986113288	MSC9	1	0					1	1	1	Ericssion							false	false	3										
100050	62	4002	49	8645	185	CDR	MSC_0001241019_101112.txt	1825139578	false	Voice	MOC	International	9986713288	9986713288	9369313756	9369313756				03/13/2020 18:04:00	03/13/2020 17:04:00	60	Outgoing	Normal Release	Prepaid	177456192345716	9986713288	MSC10	1	0					1	1	1	Ericssion							false	false	18										
100082	62	4002	81	14385	175	CDR	MSC_0001241019_101112.txt	1497884465	false	Voice	MTC	NLD	9367453766	9367453766	9369313756	9369313756				03/13/2020 12:10:00	03/13/2020 11:10:00	60	Incoming	Normal Release	Postpaid	177456192345709	9367453766	MSC3	1	0					1	1	1	Ericssion							false	true	12										
100165	62	4002	164	29316	175	CDR	MSC_0001241019_101112.txt	770452175	false	SMS	MT SMS	NLD	9986113777	9986113777	9887453756	9887453756				03/13/2020 11:11:00	03/13/2020 11:11:00	0	Incoming	Normal Release	Postpaid	177456192345713	9986113777	MSC6	1	0					1	1	1	Ericssion							false	false	11										
100202	62	4002	201	35986	177	CDR	MSC_0001241019_101112.txt	-978721065	false	SMS	MT SMS	Local	9345637669	9345637669	9777453756	9777453756				03/13/2020 03:11:00	03/13/2020 03:11:00	0	Incoming	Normal Release	Postpaid	177456192345708	9345637669	MSC3	1	0					1	1	1	Ericssion							false	true	3										
100232	62	4002	231	41359	185	CDR	MSC_0001241019_101112.txt	773604691	false	SMS	MT SMS	International	9986113289	9986113289	9367873756	9367873756				03/13/2020 12:06:00	03/13/2020 12:06:00	0	Incoming	Normal Release	Postpaid	177456192345712	9986113289	MSC3	1	0					1	1	1	Ericssion							false	true	12										
100248	62	4002	247	44257	174	CDR	MSC_0001241019_101112.txt	740964660	false	MMS	MT MMS	NLD	9986113288	9986113288	9767453756	9767453756				03/13/2020 03:02:00	03/13/2020 03:02:00	0	Incoming	Normal Release	Prepaid	177456192345711	9986113288	MSC9	1	0					1	1	1	Ericssion							false	false	3										
100033	62	4002	32	5605	174	CDR	MSC_0001241019_101112.txt	-148175788	false	Voice	MTC	NLD	9986113288	9986113288	9845300379	9845300379				03/02/2020 20:03:00	03/02/2020 18:53:00	70	Incoming	Normal Release	Prepaid	177456192345711	9986113288	MSC3	1	0					1	1	1	Ericssion							false	true	20										
100057	62	4002	56	9910	176	CDR	MSC_0001241019_101112.txt	-216455404	false	Voice	MTC	Local	9986113288	9986113288	9777453756	9777453756				03/02/2020 01:05:00	03/02/2020 00:05:00	60	Incoming	Normal Release	Prepaid	177456192345711	9986113288	MSC7	1	0					1	1	1	Ericssion							false	false	1										
100079	62	4002	78	13838	185	CDR	MSC_0001241019_101112.txt	831418938	false	Voice	MOC	International	9986713288	9986713288	9887453756	9887453756				03/02/2020 06:02:00	03/02/2020 04:42:00	80	Outgoing	Normal Release	Prepaid	177456192345716	9986713288	MSC10	1	0					1	1	1	Ericssion							false	false	6										
100097	62	4002	96	17065	175	CDR	MSC_0001241019_101112.txt	-37240529	false	Voice	MTC	NLD	9986173287	9986173287	9367453756	9367453756				03/02/2020 03:09:00	03/02/2020 01:49:00	80	Incoming	Normal Release	Postpaid	177456192345714	9986173287	MSC8	1	0					1	1	1	Ericssion							false	false	3										
100154	62	4002	153	27351	175	CDR	MSC_0001241019_101112.txt	-169535757	false	SMS	MT SMS	NLD	9986113289	9986113289	9777453756	9777453756				03/02/2020 14:07:00	03/02/2020 14:07:00	0	Incoming	Normal Release	Postpaid	177456192345712	9986113289	MSC5	1	0					1	1	1	Ericssion							false	false	14										
100155	62	4002	154	27527	176	CDR	MSC_0001241019_101112.txt	-166295947	false	SMS	MO SMS	Local	9986113287	9986113287	9777453756	9777453756				03/02/2020 15:01:00	03/02/2020 15:01:00	0	Outgoing	Normal Release	Prepaid	177456192345710	9986113287	MSC6	1	0					1	1	1	Ericssion							false	false	15										
100161	62	4002	160	28598	177	CDR	MSC_0001241019_101112.txt	856739609	false	SMS	MO SMS	Local	9986713289	9986713289	9845300379	9845300379				03/02/2020 13:04:00	03/02/2020 13:04:00	0	Outgoing	Normal Release	Postpaid	177456192345717	9986713289	MSC2	1	0					1	1	1	Ericssion							false	false	13										
100178	62	4002	177	31636	185	CDR	MSC_0001241019_101112.txt	-183875181	false	SMS	MO SMS	International	9986113289	9986113289	9367873756	9367873756				03/02/2020 10:08:00	03/02/2020 10:08:00	0	Outgoing	Normal Release	Postpaid	177456192345712	9986113289	MSC9	1	0					1	1	1	Ericssion							false	false	10										
100208	62	4002	207	37057	175	CDR	MSC_0001241019_101112.txt	-198367249	false	SMS	MO SMS	NLD	9986113777	9986113777	9367453756	9367453756				03/02/2020 06:04:00	03/02/2020 06:04:00	0	Outgoing	Normal Release	Postpaid	177456192345713	9986113777	MSC9	1	0					1	1	1	Ericssion							false	false	6										
100244	62	4002	243	43540	177	CDR	MSC_0001241019_101112.txt	-205475693	false	MMS	MO MMS	Local	9986113289	9986113289	9887453756	9887453756				03/02/2020 04:08:00	03/02/2020 04:08:00	0	Outgoing	Normal Release	Postpaid	177456192345712	9986113289	MSC5	1	0					1	1	1	Ericssion							false	false	4										
100253	62	4002	252	45150	174	CDR	MSC_0001241019_101112.txt	1659277683	false	Voice	MTC	NLD	9976113277	9976113277	9745300379	9745300379				03/02/2020 20:03:00	03/02/2020 18:53:00	70	Incoming	Normal Release	Prepaid	177456192345711	9986113288	MSC3	1	0					1	1	1	Ericssion							false	true	20										
100053	62	4002	52	9183	185	CDR	MSC_0001241019_101112.txt	1899319472	false	Voice	MTC	International	9986173287	9986173287	9367873756	9367873756				03/24/2020 13:05:00	03/24/2020 12:05:00	60	Incoming	Normal Release	Postpaid	177456192345714	9986173287	MSC3	1	0					1	1	1	Ericssion							false	true	13										
100152	62	4002	151	26990	184	CDR	MSC_0001241019_101112.txt	-1544387717	false	SMS	MT SMS	International	9986713288	9986713288	9777453756	9777453756				03/24/2020 11:08:00	03/24/2020 11:08:00	0	Incoming	Normal Release	Prepaid	177456192345716	9986713288	MSC3	1	0					1	1	1	Ericssion							false	true	11										
100163	62	4002	162	28962	177	CDR	MSC_0001241019_101112.txt	-21720680	false	SMS	MO SMS	Local	9345637669	9345637669	7734140377	7734140377				03/24/2020 05:01:00	03/24/2020 05:01:00	0	Outgoing	Normal Release	Postpaid	177456192345708	9345637669	MSC4	1	0					1	1	1	Ericssion							false	false	5										
100188	62	4002	187	33450	176	CDR	MSC_0001241019_101112.txt	1705704054	false	SMS	MT SMS	Local	9986113287	9986113287	9887453756	9887453756				03/24/2020 07:01:00	03/24/2020 07:01:00	0	Incoming	Normal Release	Prepaid	177456192345710	9986113287	MSC9	1	0					1	1	1	Ericssion							false	false	7										
100191	62	4002	190	34000	185	CDR	MSC_0001241019_101112.txt	-21720680	false	SMS	MO SMS	International	9345637669	9345637669	9369313756	9369313756				03/24/2020 05:01:00	03/24/2020 05:01:00	0	Outgoing	Normal Release	Postpaid	177456192345708	9345637669	MSC2	1	0					1	1	1	Ericssion							false	false	5										
100209	62	4002	208	37233	176	CDR	MSC_0001241019_101112.txt	-1526628198	false	SMS	MO SMS	NLD	9986713289	9986713289	9367453756	9367453756				03/24/2020 16:04:00	03/24/2020 16:04:00	0	Outgoing	Normal Release	Postpaid	177456192345717	9986713289	MSC10	1	0					1	1	1	Ericssion							false	false	16										
100230	62	4002	229	41003	177	CDR	MSC_0001241019_101112.txt	-1573127940	false	SMS	MT SMS	Local	9986713287	9986713287	9845300379	9845300379				03/24/2020 03:09:00	03/24/2020 03:09:00	0	Incoming	Normal Release	Postpaid	177456192345715	9986713287	MSC1	1	0					1	1	1	Ericssion							false	false	3										
100255	62	4002	254	45502	185	CDR	MSC_0001241019_101112.txt	-588194322	false	Voice	MTC	International	9976173277	9976173277	9367773756	9367773756				03/24/2020 13:05:00	03/24/2020 12:05:00	60	Incoming	Normal Release	Postpaid	177456192345714	9986173287	MSC3	1	0					1	1	1	Ericssion							false	true	13										
100041	62	4002	40	7037	186	CDR	MSC_0001241019_101112.txt	1479112623	false	Voice	MTC	International	9986113777	9986113777	9367453756	9367453756				03/21/2020 16:02:00	03/21/2020 14:02:00	120	Incoming	Normal Release	Postpaid	177456192345713	9986113777	MSC1	1	0					1	1	1	Ericssion							false	false	16										
100071	62	4002	70	12407	177	CDR	MSC_0001241019_101112.txt	1500564179	false	Voice	MOC	Local	9986113289	9986113289	9367873756	9367873756				03/21/2020 22:02:00	03/21/2020 20:42:00	80	Outgoing	Normal Release	Postpaid	177456192345712	9986113289	MSC2	1	0					1	1	1	Ericssion							false	false	22										
100072	62	4002	71	12585	175	CDR	MSC_0001241019_101112.txt	1432852175	false	Voice	MTC	NLD	9986113777	9986113777	9845300379	9845300379				03/21/2020 03:11:00	03/21/2020 02:33:00	38	Incoming	Normal Release	Postpaid	177456192345713	9986113777	MSC3	1	0					1	1	1	Ericssion							false	true	3										
100080	62	4002	79	14024	184	CDR	MSC_0001241019_101112.txt	-1824948230	false	Voice	MOC	International	9986713288	9986713288	9845300379	9845300379				03/21/2020 05:12:00	03/21/2020 03:52:00	80	Outgoing	Normal Release	Prepaid	177456192345716	9986713288	MSC1	1	0					1	1	1	Ericssion							false	false	5										
100122	62	4002	121	21589	176	CDR	MSC_0001241019_101112.txt	-1810607782	false	Voice	MTC	Local	9986713288	9986713288	9367873756	9367873756				03/21/2020 09:11:00	03/21/2020 08:11:00	60	Incoming	Normal Release	Prepaid	177456192345716	9986713288	MSC3	1	0					1	1	1	Ericssion							false	true	9										
100143	62	4002	142	25369	177	CDR	MSC_0001241019_101112.txt	-1828728391	false	Voice	MTC	Local	9986713289	9986713289	9845300381	9845300381				03/21/2020 04:09:00	03/21/2020 03:09:00	60	Incoming	Normal Release	Postpaid	177456192345717	9986713289	MSC4	1	0					1	1	1	Ericssion							false	false	4										
100168	62	4002	167	29846	185	CDR	MSC_0001241019_101112.txt	-1836167879	false	SMS	MO SMS	International	9986713289	9986713289	9767453756	9767453756				03/21/2020 02:05:00	03/21/2020 02:05:00	0	Outgoing	Normal Release	Postpaid	177456192345717	9986713289	MSC9	1	0					1	1	1	Ericssion							false	false	2										
100171	62	4002	170	30387	176	CDR	MSC_0001241019_101112.txt	1443444629	false	SMS	MT SMS	Local	9986113287	9986113287	7734140377	7734140377				03/21/2020 06:10:00	03/21/2020 06:10:00	0	Incoming	Normal Release	Prepaid	177456192345710	9986113287	MSC2	1	0					1	1	1	Ericssion							false	false	6										
100221	62	4002	220	39370	184	CDR	MSC_0001241019_101112.txt	1432344053	false	SMS	MO SMS	International	9986113287	9986113287	9845300381	9845300381				03/21/2020 03:05:00	03/21/2020 03:05:00	0	Outgoing	Normal Release	Prepaid	177456192345710	9986113287	MSC2	1	0					1	1	1	Ericssion							false	false	3										
100257	62	4002	256	45865	175	CDR	MSC_0001241019_101112.txt	-1054660658	false	Voice	MTC	NLD	9976113777	9976113777	9745300379	9745300379				03/21/2020 03:11:00	03/21/2020 02:33:00	38	Incoming	Normal Release	Postpaid	177456192345713	9986113777	MSC3	1	0					1	1	1	Ericssion							false	true	3										
100052	62	4002	51	9007	175	CDR	MSC_0001241019_101112.txt	866299663	false	Voice	MTC	NLD	9986173287	9986173287	9767453756	9767453756				03/12/2020 14:08:00	03/12/2020 13:08:00	60	Incoming	Normal Release	Postpaid	177456192345714	9986173287	MSC2	1	0					1	1	1	Ericssion							false	false	14										
100116	62	4002	115	20516	184	CDR	MSC_0001241019_101112.txt	661884757	false	Voice	MTC	International	9986113287	9986113287	9777453756	9777453756				03/12/2020 05:04:00	03/12/2020 04:04:00	60	Incoming	Normal Release	Prepaid	177456192345710	9986113287	MSC7	1	0					1	1	1	Ericssion							false	false	5										
100128	62	4002	127	22673	184	CDR	MSC_0001241019_101112.txt	658464693	false	Voice	MTC	International	9986113287	9986113287	9367873756	9367873756				03/12/2020 04:07:00	03/12/2020 02:57:00	70	Incoming	Normal Release	Prepaid	177456192345710	9986113287	MSC9	1	0					1	1	1	Ericssion							false	false	4										
100130	62	4002	129	23037	185	CDR	MSC_0001241019_101112.txt	1746238843	false	Voice	MTC	International	9986713287	9986713287	9845300381	9845300381				03/12/2020 20:09:00	03/12/2020 19:09:00	60	Incoming	Normal Release	Postpaid	177456192345715	9986713287	MSC1	1	0					1	1	1	Ericssion							false	false	20										
100153	62	4002	152	27175	175	CDR	MSC_0001241019_101112.txt	869718959	false	SMS	MT SMS	NLD	9986173287	9986173287	9845300381	9845300381				03/12/2020 15:05:00	03/12/2020 15:05:00	0	Incoming	Normal Release	Postpaid	177456192345714	9986173287	MSC4	1	0					1	1	1	Ericssion							false	false	15										
100176	62	4002	175	31282	177	CDR	MSC_0001241019_101112.txt	701964819	false	SMS	MO SMS	Local	9986113289	9986113289	9367873756	9367873756				03/12/2020 16:12:00	03/12/2020 16:12:00	0	Outgoing	Normal Release	Postpaid	177456192345712	9986113289	MSC7	1	0					1	1	1	Ericssion							false	false	16										
100185	62	4002	184	32918	175	CDR	MSC_0001241019_101112.txt	876799087	false	SMS	MT SMS	NLD	9986173287	9986173287	7734140377	7734140377				03/12/2020 17:03:00	03/12/2020 17:03:00	0	Incoming	Normal Release	Postpaid	177456192345714	9986173287	MSC6	1	0					1	1	1	Ericssion							false	false	17										
100197	62	4002	196	35086	175	CDR	MSC_0001241019_101112.txt	-997261129	false	SMS	MO SMS	NLD	9345637669	9345637669	9777453756	9777453756				03/12/2020 22:02:00	03/12/2020 22:02:00	0	Outgoing	Normal Release	Postpaid	177456192345708	9345637669	MSC8	1	0					1	1	1	Ericssion							false	false	22										
100054	62	4002	53	9369	174	CDR	MSC_0001241019_101112.txt	1334964629	false	Voice	MTC	NLD	9986113287	9986113287	9367873756	9367873756				03/20/2020 00:02:00	03/19/2020 23:02:00	60	Incoming	Normal Release	Prepaid	177456192345710	9986113287	MSC4	1	0					1	1	1	Ericssion							false	false	0										
100085	62	4002	84	14915	176	CDR	MSC_0001241019_101112.txt	1356504053	false	Voice	MTC	Local	9986113287	9986113287	9367453756	9367453756				03/20/2020 06:01:00	03/20/2020 04:51:00	70	Incoming	Normal Release	Prepaid	177456192345710	9986113287	MSC6	1	0					1	1	1	Ericssion							false	false	6										
100110	62	4002	109	19434	184	CDR	MSC_0001241019_101112.txt	2105925105	false	Voice	CF	International	9367453766	9367453766	9367853756	9367853756				03/20/2020 13:04:00	03/20/2020 11:44:00	80	Outgoing	Normal Release	Postpaid	177456192345709	9367453766	MSC1	1	0					1	1	1	Ericssion							false	false	13										
100121	62	4002	120	21412	176	CDR	MSC_0001241019_101112.txt	1339164276	false	Voice	MTC	Local	9986113288	9986113288	7734140377	7734140377				03/20/2020 01:12:00	03/19/2020 23:52:00	80	Incoming	Normal Release	Prepaid	177456192345711	9986113288	MSC2	1	0					1	1	1	Ericssion							false	false	1										
100131	62	4002	130	23223	175	CDR	MSC_0001241019_101112.txt	1342252047	false	Voice	MOC	NLD	9986113777	9986113777	9367873756	9367873756				03/20/2020 02:01:00	03/20/2020 00:51:00	70	Outgoing	Normal Release	Postpaid	177456192345713	9986113777	MSC2	1	0					1	1	1	Ericssion							false	false	2										
100160	62	4002	159	28421	176	CDR	MSC_0001241019_101112.txt	1414584596	false	SMS	MT SMS	Local	9986113288	9986113288	9777453756	9777453756				03/20/2020 22:09:00	03/20/2020 22:09:00	0	Incoming	Normal Release	Prepaid	177456192345711	9986113288	MSC1	1	0					1	1	1	Ericssion							false	false	22										
100175	62	4002	174	31096	185	CDR	MSC_0001241019_101112.txt	-1857407813	false	SMS	MO SMS	International	9986713287	9986713287	9845300381	9845300381				03/20/2020 20:11:00	03/20/2020 20:11:00	0	Outgoing	Normal Release	Postpaid	177456192345715	9986713287	MSC6	1	0					1	1	1	Ericssion							false	false	20										
100184	62	4002	183	32732	185	CDR	MSC_0001241019_101112.txt	1575379023	false	SMS	MT SMS	International	9986173287	9986173287	9777453756	9777453756				03/20/2020 19:06:00	03/20/2020 19:06:00	0	Incoming	Normal Release	Postpaid	177456192345714	9986173287	MSC5	1	0					1	1	1	Ericssion							false	false	19										
100217	62	4002	216	38653	185	CDR	MSC_0001241019_101112.txt	1346184627	false	SMS	MT SMS	International	9986113289	9986113289	9845300381	9845300381				03/20/2020 03:09:00	03/20/2020 03:09:00	0	Incoming	Normal Release	Postpaid	177456192345712	9986113289	MSC8	1	0					1	1	1	Ericssion							false	false	3										
100059	62	4002	58	10263	177	CDR	MSC_0001241019_101112.txt	208798936	false	Voice	MOC	Local	9345637669	9345637669	9887453756	9887453756				03/26/2020 21:03:00	03/26/2020 19:43:00	80	Outgoing	Normal Release	Postpaid	177456192345708	9345637669	MSC9	1	0					1	1	1	Ericssion							false	false	21										
100073	62	4002	72	12761	178	CDR	MSC_0001241019_101112.txt	2058019536	false	Voice	MTC	Local	9986173287	9986173287	9367873756	9367873756				03/26/2020 09:10:00	03/26/2020 07:10:00	120	Incoming	Normal Release	Postpaid	177456192345714	9986173287	MSC4	1	0					1	1	1	Ericssion							false	false	9										
100172	62	4002	171	30564	177	CDR	MSC_0001241019_101112.txt	1900524308	false	SMS	MO SMS	Local	9986113289	9986113289	9367853756	9367853756				03/26/2020 13:08:00	03/26/2020 13:08:00	0	Outgoing	Normal Release	Postpaid	177456192345712	9986113289	MSC3	1	0					1	1	1	Ericssion							false	true	13										
100173	62	4002	172	30742	176	CDR	MSC_0001241019_101112.txt	1864104054	false	SMS	MO SMS	Local	9986113287	9986113287	9845300379	9845300379				03/26/2020 03:01:00	03/26/2020 03:01:00	0	Outgoing	Normal Release	Prepaid	177456192345710	9986113287	MSC4	1	0					1	1	1	Ericssion							false	false	3										
100181	62	4002	180	32185	175	CDR	MSC_0001241019_101112.txt	-1361148388	false	SMS	MO SMS	NLD	9986713287	9986713287	9845300379	9845300379				03/26/2020 14:02:00	03/26/2020 14:02:00	0	Outgoing	Normal Release	Postpaid	177456192345715	9986713287	MSC2	1	0					1	1	1	Ericssion							false	false	14										
100194	62	4002	193	34548	175	CDR	MSC_0001241019_101112.txt	1922332560	false	SMS	MT SMS	NLD	9986113777	9986113777	9887453756	9887453756				03/26/2020 19:09:00	03/26/2020 19:09:00	0	Incoming	Normal Release	Postpaid	177456192345713	9986113777	MSC5	1	0					1	1	1	Ericssion							false	false	19										
100210	62	4002	209	37410	175	CDR	MSC_0001241019_101112.txt	-1684562702	false	SMS	MT SMS	NLD	9367453766	9367453766	9369313756	9369313756				03/26/2020 09:12:00	03/26/2020 09:12:00	0	Incoming	Normal Release	Postpaid	177456192345709	9367453766	MSC1	1	0					1	1	1	Ericssion							false	false	9										
100239	62	4002	238	42634	186	CDR	MSC_0001241019_101112.txt	-1350407940	false	SMS	MO SMS	International	9986713287	9986713287	9887453756	9887453756				03/26/2020 17:01:00	03/26/2020 17:01:00	0	Outgoing	Normal Release	Postpaid	177456192345715	9986713287	MSC10	1	0					1	1	1	Ericssion							false	false	17										
100060	62	4002	59	10441	178	CDR	MSC_0001241019_101112.txt	1940384401	false	Voice	MOC	Local	9367453766	9367453766	9767453756	9767453756				03/18/2020 15:05:00	03/18/2020 14:05:00	60	Outgoing	Normal Release	Postpaid	177456192345709	9367453766	MSC10	1	0					1	1	1	Ericssion							false	false	15										
100077	62	4002	76	13477	184	CDR	MSC_0001241019_101112.txt	-2059368422	false	Voice	MTC	International	9986713288	9986713288	9369313756	9369313756				03/18/2020 12:05:00	03/18/2020 10:45:00	80	Incoming	Normal Release	Prepaid	177456192345716	9986713288	MSC8	1	0					1	1	1	Ericssion							false	false	12										
100123	62	4002	122	21766	174	CDR	MSC_0001241019_101112.txt	-2037587718	false	Voice	MOC	NLD	9986713288	9986713288	9767453756	9767453756				03/18/2020 18:08:00	03/18/2020 16:48:00	80	Outgoing	Normal Release	Prepaid	177456192345716	9986713288	MSC4	1	0					1	1	1	Ericssion							false	false	18										
100126	62	4002	125	22302	185	CDR	MSC_0001241019_101112.txt	-528960553	false	Voice	MOC	International	9345637669	9345637669	9777453756	9777453756				03/18/2020 08:07:00	03/18/2020 07:29:00	38	Outgoing	Normal Release	Postpaid	177456192345708	9345637669	MSC7	1	0					1	1	1	Ericssion							false	false	8										
100134	62	4002	133	23770	175	CDR	MSC_0001241019_101112.txt	-2084507877	false	Voice	MTC	NLD	9986713287	9986713287	9887453756	9887453756				03/18/2020 05:06:00	03/18/2020 04:06:00	60	Incoming	Normal Release	Postpaid	177456192345715	9986713287	MSC5	1	0					1	1	1	Ericssion							false	false	5										
100147	62	4002	146	26098	174	CDR	MSC_0001241019_101112.txt	1183704084	false	Voice	MTC	NLD	9986113288	9986113288	9845300381	9845300381				03/18/2020 06:01:00	03/18/2020 05:01:00	60	Incoming	Normal Release	Prepaid	177456192345711	9986113288	MSC8	1	0					1	1	1	Ericssion							false	false	6										
100063	62	4002	62	10973	176	CDR	MSC_0001241019_101112.txt	917939578	false	Voice	MOC	Local	9986713288	9986713288	9845300381	9845300381				03/03/2020 06:04:00	03/03/2020 05:04:00	60	Outgoing	Normal Release	Prepaid	177456192345716	9986713288	MSC3	1	0					1	1	1	Ericssion							false	true	6										
100187	62	4002	186	33272	177	CDR	MSC_0001241019_101112.txt	619605105	false	SMS	MO SMS	Local	9367453766	9367453766	9367453756	9367453756				03/03/2020 08:12:00	03/03/2020 08:12:00	0	Outgoing	Normal Release	Postpaid	177456192345709	9367453766	MSC8	1	0					1	1	1	Ericssion							false	false	8										
100190	62	4002	189	33814	185	CDR	MSC_0001241019_101112.txt	-68287761	false	SMS	MO SMS	International	9986113777	9986113777	9845300381	9845300381				03/03/2020 18:12:00	03/03/2020 18:12:00	0	Outgoing	Normal Release	Postpaid	177456192345713	9986113777	MSC1	1	0					1	1	1	Ericssion							false	false	18										
100196	62	4002	195	34900	185	CDR	MSC_0001241019_101112.txt	968459419	false	SMS	MT SMS	International	9986713287	9986713287	9367453756	9367453756				03/03/2020 20:06:00	03/03/2020 20:06:00	0	Incoming	Normal Release	Postpaid	177456192345715	9986713287	MSC7	1	0					1	1	1	Ericssion							false	false	20										
100231	62	4002	230	41181	177	CDR	MSC_0001241019_101112.txt	-100687761	false	SMS	MO SMS	Local	9986113777	9986113777	9367853756	9367853756				03/03/2020 09:12:00	03/03/2020 09:12:00	0	Outgoing	Normal Release	Postpaid	177456192345713	9986113777	MSC2	1	0					1	1	1	Ericssion							false	false	9										
100256	62	4002	255	45688	176	CDR	MSC_0001241019_101112.txt	-1569574247	false	Voice	MTC	Local	9976713277	9976713277	9745300371	9745300371				03/03/2020 06:04:00	03/03/2020 05:04:00	60	Outgoing	Normal Release	Prepaid	177456192345716	9986713288	MSC3	1	0					1	1	1	Ericssion							false	true	6										
100081	62	4002	80	14209	175	CDR	MSC_0001241019_101112.txt	1830739024	false	Voice	MTC	NLD	9986173287	9986173287	7734140377	7734140377				03/23/2020 18:02:00	03/23/2020 16:42:00	80	Incoming	Normal Release	Postpaid	177456192345714	9986173287	MSC2	1	0					1	1	1	Ericssion							false	false	18										
100109	62	4002	108	19248	185	CDR	MSC_0001241019_101112.txt	1601724789	false	Voice	CF	International	9986113288	9986113288	9777453756	9777453756				03/23/2020 02:08:00	03/23/2020 00:08:00	120	Outgoing	Normal Release	Prepaid	177456192345711	9986113288	MSC10	1	0					1	1	1	Ericssion							false	false	2										
100101	62	4002	100	17792	178	CDR	MSC_0001241019_101112.txt	-1976327879	false	Voice	MTC	Local	9986713289	9986713289	9845300379	9845300379				03/19/2020 11:09:00	03/19/2020 09:09:00	120	Incoming	Normal Release	Postpaid	177456192345717	9986713289	MSC2	1	0					1	1	1	Ericssion							false	false	11										
100127	62	4002	126	22488	184	CDR	MSC_0001241019_101112.txt	1273764629	false	Voice	MTC	International	9986113287	9986113287	9369313756	9369313756				03/19/2020 07:02:00	03/19/2020 06:24:00	38	Incoming	Normal Release	Prepaid	177456192345710	9986113287	MSC8	1	0					1	1	1	Ericssion							false	false	7										
100144	62	4002	143	25547	186	CDR	MSC_0001241019_101112.txt	1277604691	false	Voice	MOC	International	9986113289	9986113289	9887453756	9887453756				03/19/2020 08:06:00	03/19/2020 06:06:00	120	Outgoing	Normal Release	Postpaid	177456192345712	9986113289	MSC5	1	0					1	1	1	Ericssion							false	false	8										
100159	62	4002	158	28242	178	CDR	MSC_0001241019_101112.txt	1256272751	false	SMS	MT SMS	Local	9986113777	9986113777	9367853756	9367853756				03/19/2020 02:08:00	03/19/2020 02:08:00	0	Incoming	Normal Release	Postpaid	177456192345713	9986113777	MSC10	1	0					1	1	1	Ericssion							false	false	2										
100177	62	4002	176	31460	175	CDR	MSC_0001241019_101112.txt	1303164819	false	SMS	MO SMS	NLD	9986113289	9986113289	9845300381	9845300381				03/19/2020 15:12:00	03/19/2020 15:12:00	0	Outgoing	Normal Release	Postpaid	177456192345712	9986113289	MSC8	1	0					1	1	1	Ericssion							false	false	15										
100224	62	4002	223	39919	184	CDR	MSC_0001241019_101112.txt	1270224693	false	SMS	MT SMS	International	9986113287	9986113287	9367873756	9367873756				03/19/2020 06:03:00	03/19/2020 06:03:00	0	Incoming	Normal Release	Prepaid	177456192345710	9986113287	MSC5	1	0					1	1	1	Ericssion							false	false	6										
100227	62	4002	226	40455	185	CDR	MSC_0001241019_101112.txt	-1997748261	false	SMS	MT SMS	International	9986713287	9986713287	9767453756	9767453756				03/19/2020 05:12:00	03/19/2020 05:12:00	0	Incoming	Normal Release	Postpaid	177456192345715	9986713287	MSC8	1	0					1	1	1	Ericssion							false	false	5										
100245	62	4002	244	43718	185	CDR	MSC_0001241019_101112.txt	-1951548327	false	MMS	MT MMS	International	9986713289	9986713289	9777453756	9777453756				03/19/2020 18:02:00	03/19/2020 18:02:00	0	Incoming	Normal Release	Postpaid	177456192345717	9986713289	MSC6	1	0					1	1	1	Ericssion							false	false	18										
100135	62	4002	134	23946	175	CDR	MSC_0001241019_101112.txt	68638936	false	Voice	MTC	NLD	9345637669	9345637669	9845300381	9845300381				03/25/2020 06:07:00	03/25/2020 05:07:00	60	Incoming	Normal Release	Postpaid	177456192345708	9345637669	MSC6	1	0					1	1	1	Ericssion							false	false	6										
100137	62	4002	136	24300	177	CDR	MSC_0001241019_101112.txt	-1415087812	false	Voice	MOC	Local	9986713287	9986713287	9367853756	9367853756				03/25/2020 23:03:00	03/25/2020 22:03:00	60	Outgoing	Normal Release	Postpaid	177456192345715	9986713287	MSC8	1	0					1	1	1	Ericssion							false	false	23										
100145	62	4002	144	25734	177	CDR	MSC_0001241019_101112.txt	-1764122830	false	Voice	MTC	Local	9367453766	9367453766	9887453756	9887453756				03/25/2020 11:06:00	03/25/2020 09:56:00	70	Incoming	Normal Release	Postpaid	177456192345709	9367453766	MSC6	1	0					1	1	1	Ericssion							false	false	11										
100174	62	4002	173	30919	176	CDR	MSC_0001241019_101112.txt	1839444118	false	SMS	MT SMS	Local	9986113287	9986113287	9367873756	9367873756				03/25/2020 20:10:00	03/25/2020 20:10:00	0	Incoming	Normal Release	Prepaid	177456192345710	9986113287	MSC5	1	0					1	1	1	Ericssion							false	false	20										
100211	62	4002	210	37586	174	CDR	MSC_0001241019_101112.txt	1785504694	false	SMS	MO SMS	NLD	9986113287	9986113287	9845300379	9845300379				03/25/2020 05:11:00	03/25/2020 05:11:00	0	Outgoing	Normal Release	Prepaid	177456192345710	9986113287	MSC2	1	0					1	1	1	Ericssion							false	false	5										
100225	62	4002	224	40104	174	CDR	MSC_0001241019_101112.txt	1785024182	false	SMS	MT SMS	NLD	9986113287	9986113287	9777453756	9777453756				03/25/2020 05:03:00	03/25/2020 05:03:00	0	Incoming	Normal Release	Prepaid	177456192345710	9986113287	MSC6	1	0					1	1	1	Ericssion							false	false	5										
100003	62	4002	2	175	174	CDR	MSC_0001241019_101112.txt	320244660	false	Voice	MOC	NLD	9986113288	9986113288	9367853756	9367853756				03/08/2020 06:10:00	03/08/2020 05:10:00	60	Outgoing	Normal Release	Prepaid	177456192345711	9986113288	MSC2	1	0					1	1	1	Ericssion							false	false	6										
100032	62	4002	31	5420	184	CDR	MSC_0001241019_101112.txt	1083824401	false	Voice	CF	International	9367453766	9367453766	9767453756	9767453756				03/08/2020 17:09:00	03/08/2020 16:09:00	60	Outgoing	Normal Release	Postpaid	177456192345709	9367453766	MSC2	1	0					1	1	1	Ericssion							false	false	17										
100042	62	4002	41	7224	174	CDR	MSC_0001241019_101112.txt	1346278971	false	Voice	CF	NLD	9986713287	9986713287	9887453756	9887453756				03/08/2020 05:03:00	03/08/2020 04:03:00	60	Outgoing	Normal Release	Postpaid	177456192345715	9986713287	MSC2	1	0					1	1	1	Ericssion							false	false	5										
100058	62	4002	57	10087	175	CDR	MSC_0001241019_101112.txt	1411498907	false	Voice	MTC	NLD	9986713287	9986713287	9367873756	9367873756				03/08/2020 23:10:00	03/08/2020 22:10:00	60	Incoming	Normal Release	Postpaid	177456192345715	9986713287	MSC8	1	0					1	1	1	Ericssion							false	false	23										
100069	62	4002	68	12053	175	CDR	MSC_0001241019_101112.txt	363564276	false	Voice	MTC	NLD	9986113288	9986113288	9367853756	9367853756				03/08/2020 18:12:00	03/08/2020 16:12:00	120	Incoming	Normal Release	Prepaid	177456192345711	9986113288	MSC9	1	0					1	1	1	Ericssion							false	false	18										
100094	62	4002	93	16525	176	CDR	MSC_0001241019_101112.txt	345564245	false	Voice	MOC	Local	9986113287	9986113287	9777453756	9777453756				03/08/2020 13:12:00	03/08/2020 12:02:00	70	Outgoing	Normal Release	Prepaid	177456192345710	9986113287	MSC5	1	0					1	1	1	Ericssion							false	false	13										
100096	62	4002	95	16888	176	CDR	MSC_0001241019_101112.txt	298104596	false	Voice	MOC	Local	9986113288	9986113288	9367853756	9367853756				03/08/2020 00:01:00	03/07/2020 23:01:00	60	Outgoing	Normal Release	Prepaid	177456192345711	9986113288	MSC7	1	0					1	1	1	Ericssion							false	false	0										
100118	62	4002	117	20878	177	CDR	MSC_0001241019_101112.txt	320212175	false	Voice	MOC	Local	9986113777	9986113777	9367853756	9367853756				03/08/2020 06:07:00	03/08/2020 05:07:00	60	Outgoing	Normal Release	Postpaid	177456192345713	9986113777	MSC9	1	0					1	1	1	Ericssion							false	false	6										
100120	62	4002	119	21234	177	CDR	MSC_0001241019_101112.txt	352644179	false	Voice	MTC	Local	9986113289	9986113289	9777453756	9777453756				03/08/2020 15:10:00	03/08/2020 14:00:00	70	Incoming	Normal Release	Postpaid	177456192345712	9986113289	MSC1	1	0					1	1	1	Ericssion							false	false	15										
100141	62	4002	140	25006	185	CDR	MSC_0001241019_101112.txt	1379039386	false	Voice	MTC	International	9986713288	9986713288	9369313756	9369313756				03/08/2020 14:09:00	03/08/2020 12:09:00	120	Incoming	Normal Release	Prepaid	177456192345716	9986713288	MSC2	1	0					1	1	1	Ericssion							false	false	14										
100179	62	4002	178	31822	177	CDR	MSC_0001241019_101112.txt	302064181	false	SMS	MT SMS	Local	9986113287	9986113287	9845300381	9845300381				03/08/2020 01:07:00	03/08/2020 01:07:00	0	Incoming	Normal Release	Prepaid	177456192345710	9986113287	MSC10	1	0					1	1	1	Ericssion							false	false	1										
100183	62	4002	182	32547	184	CDR	MSC_0001241019_101112.txt	1400759514	false	SMS	MT SMS	International	9986713288	9986713288	9367873756	9367873756				03/08/2020 20:11:00	03/08/2020 20:11:00	0	Incoming	Normal Release	Prepaid	177456192345716	9986713288	MSC4	1	0					1	1	1	Ericssion							false	false	20										
100222	62	4002	221	39555	177	CDR	MSC_0001241019_101112.txt	377664243	false	SMS	MT SMS	Local	9986113289	9986113289	9367453756	9367453756				03/08/2020 22:07:00	03/08/2020 22:07:00	0	Incoming	Normal Release	Postpaid	177456192345712	9986113289	MSC3	1	0					1	1	1	Ericssion							false	true	22										
100004	62	4002	3	350	177	CDR	MSC_0001241019_101112.txt	-633240681	false	Voice	MOC	Local	9345637669	9345637669	9767453756	9767453756				03/17/2020 03:09:00	03/17/2020 01:49:00	80	Outgoing	Normal Release	Postpaid	177456192345708	9345637669	MSC3	1	0					1	1	1	Ericssion							false	true	3										
100139	62	4002	138	24654	175	CDR	MSC_0001241019_101112.txt	1133484276	false	Voice	MTC	NLD	9986113288	9986113288	9845300379	9845300379				03/17/2020 16:04:00	03/17/2020 14:44:00	80	Incoming	Normal Release	Prepaid	177456192345711	9986113288	MSC10	1	0					1	1	1	Ericssion							false	false	16										
100158	62	4002	157	28056	185	CDR	MSC_0001241019_101112.txt	-597180617	false	SMS	MO SMS	International	9345637669	9345637669	9367853756	9367853756				03/17/2020 13:10:00	03/17/2020 13:10:00	0	Outgoing	Normal Release	Postpaid	177456192345708	9345637669	MSC9	1	0					1	1	1	Ericssion							false	false	13										
100166	62	4002	165	29492	177	CDR	MSC_0001241019_101112.txt	2120638905	false	SMS	MT SMS	Local	9986713289	9986713289	9367873756	9367873756				03/17/2020 04:09:00	03/17/2020 04:09:00	0	Incoming	Normal Release	Postpaid	177456192345717	9986713289	MSC7	1	0					1	1	1	Ericssion							false	false	4										
100180	62	4002	179	32000	184	CDR	MSC_0001241019_101112.txt	1097544565	false	SMS	MT SMS	International	9986113287	9986113287	9845300379	9845300379				03/17/2020 06:05:00	03/17/2020 06:05:00	0	Incoming	Normal Release	Prepaid	177456192345710	9986113287	MSC1	1	0					1	1	1	Ericssion							false	false	6										
100198	62	4002	197	35262	184	CDR	MSC_0001241019_101112.txt	1104684245	false	SMS	MT SMS	International	9986113287	9986113287	9367853756	9367853756				03/17/2020 08:04:00	03/17/2020 08:04:00	0	Incoming	Normal Release	Prepaid	177456192345710	9986113287	MSC9	1	0					1	1	1	Ericssion							false	false	8										
100213	62	4002	212	37939	174	CDR	MSC_0001241019_101112.txt	-2105868358	false	SMS	MO SMS	NLD	9986713288	9986713288	9887453756	9887453756				03/17/2020 23:10:00	03/17/2020 23:10:00	0	Outgoing	Normal Release	Prepaid	177456192345716	9986713288	MSC4	1	0					1	1	1	Ericssion							false	false	23										
100250	62	4002	249	44619	177	CDR	MSC_0001241019_101112.txt	-633240681	false	Voice	MTC	Local	9345637669	9345637669	9767453756	9767453756				03/17/2020 03:09:00	03/17/2020 01:49:00	80	Outgoing	Normal Release	Postpaid	177456192345708	9345637669	MSC3	1	0					1	1	1	Ericssion							false	true	3										
100007	62	4002	6	881	177	CDR	MSC_0001241019_101112.txt	132952111	false	Voice	MTC	Local	9986113777	9986113777	9369313756	9369313756				03/06/2020 02:06:00	03/06/2020 01:06:00	60	Incoming	Normal Release	Postpaid	177456192345713	9986113777	MSC6	1	0					1	1	1	Ericssion							false	false	2										
100024	62	4002	23	3973	178	CDR	MSC_0001241019_101112.txt	176184627	false	Voice	MOC	Local	9986113289	9986113289	9369313756	9369313756				03/06/2020 14:09:00	03/06/2020 12:09:00	120	Outgoing	Normal Release	Postpaid	177456192345712	9986113289	MSC4	1	0					1	1	1	Ericssion							false	false	14										
100026	62	4002	25	4338	185	CDR	MSC_0001241019_101112.txt	1220519033	false	Voice	MTC	International	9986713289	9986713289	9777453756	9777453756				03/06/2020 18:07:00	03/06/2020 17:07:00	60	Incoming	Normal Release	Postpaid	177456192345717	9986713289	MSC6	1	0					1	1	1	Ericssion							false	false	18										
100083	62	4002	82	14561	177	CDR	MSC_0001241019_101112.txt	889065041	false	Voice	MOC	Local	9367453766	9367453766	9767453756	9767453756				03/06/2020 11:03:00	03/06/2020 10:25:00	38	Outgoing	Normal Release	Postpaid	177456192345709	9367453766	MSC4	1	0					1	1	1	Ericssion							false	false	11										
100124	62	4002	123	21941	185	CDR	MSC_0001241019_101112.txt	165504181	false	Voice	MOC	International	9986113287	9986113287	7734140377	7734140377				03/06/2020 11:11:00	03/06/2020 09:11:00	120	Outgoing	Normal Release	Prepaid	177456192345710	9986113287	MSC5	1	0					1	1	1	Ericssion							false	false	11										
100125	62	4002	124	22127	174	CDR	MSC_0001241019_101112.txt	129564245	false	Voice	MOC	NLD	9986113287	9986113287	9845300379	9845300379				03/06/2020 01:12:00	03/06/2020 00:02:00	70	Outgoing	Normal Release	Prepaid	177456192345710	9986113287	MSC6	1	0					1	1	1	Ericssion							false	false	1										
100195	62	4002	194	34724	175	CDR	MSC_0001241019_101112.txt	1174019097	false	SMS	MT SMS	NLD	9986713289	9986713289	9367853756	9367853756				03/06/2020 05:12:00	03/06/2020 05:12:00	0	Incoming	Normal Release	Postpaid	177456192345717	9986713289	MSC6	1	0					1	1	1	Ericssion							false	false	5										
100220	62	4002	219	39193	176	CDR	MSC_0001241019_101112.txt	143484788	false	SMS	MO SMS	Local	9986113288	9986113288	9845300381	9845300381				03/06/2020 05:04:00	03/06/2020 05:04:00	0	Outgoing	Normal Release	Prepaid	177456192345711	9986113288	MSC1	1	0					1	1	1	Ericssion							false	false	5										
100243	62	4002	242	43354	185	CDR	MSC_0001241019_101112.txt	1206239417	false	MMS	MO MMS	International	9986713289	9986713289	7734140377	7734140377				03/06/2020 14:09:00	03/06/2020 14:09:00	0	Outgoing	Normal Release	Postpaid	177456192345717	9986713289	MSC4	1	0					1	1	1	Ericssion							false	false	14										
100009	62	4002	8	1237	184	CDR	MSC_0001241019_101112.txt	888924276	false	Voice	MOC	International	9986113288	9986113288	9845300381	9845300381				03/14/2020 20:08:00	03/14/2020 18:58:00	70	Outgoing	Normal Release	Prepaid	177456192345711	9986113288	MSC8	1	0					1	1	1	Ericssion							false	false	20										
100043	62	4002	42	7399	176	CDR	MSC_0001241019_101112.txt	860212687	false	Voice	MTC	NLD	9986113777	9986113777	7734140377	7734140377				03/14/2020 12:07:00	03/14/2020 10:07:00	120	Incoming	Normal Release	Postpaid	177456192345713	9986113777	MSC3	1	0					1	1	1	Ericssion							false	true	12										
100051	62	4002	50	8831	175	CDR	MSC_0001241019_101112.txt	1573244977	false	Voice	MOC	NLD	9367453766	9367453766	9845300379	9845300379				03/14/2020 09:06:00	03/14/2020 07:46:00	80	Outgoing	Normal Release	Postpaid	177456192345709	9367453766	MSC1	1	0					1	1	1	Ericssion							false	false	9										
100055	62	4002	54	9544	178	CDR	MSC_0001241019_101112.txt	1850159355	false	Voice	MOC	Local	9986713287	9986713287	9367453756	9367453756				03/14/2020 01:01:00	03/13/2020 23:01:00	120	Outgoing	Normal Release	Postpaid	177456192345715	9986713287	MSC5	1	0					1	1	1	Ericssion							false	false	1										
100065	62	4002	64	11326	175	CDR	MSC_0001241019_101112.txt	824364276	false	Voice	MOC	NLD	9986113288	9986113288	9767453756	9767453756				03/14/2020 02:12:00	03/14/2020 00:12:00	120	Outgoing	Normal Release	Prepaid	177456192345711	9986113288	MSC5	1	0					1	1	1	Ericssion							false	false	2										
100087	62	4002	86	15270	184	CDR	MSC_0001241019_101112.txt	856644117	false	Voice	MTC	International	9986113287	9986113287	9845300381	9845300381				03/14/2020 11:10:00	03/14/2020 10:10:00	60	Incoming	Normal Release	Prepaid	177456192345710	9986113287	MSC8	1	0					1	1	1	Ericssion							false	false	11										
100104	62	4002	103	18334	176	CDR	MSC_0001241019_101112.txt	1918919514	false	Voice	MTC	Local	9986713288	9986713288	9367853756	9367853756				03/14/2020 20:07:00	03/14/2020 19:07:00	60	Incoming	Normal Release	Prepaid	177456192345716	9986713288	MSC5	1	0					1	1	1	Ericssion							false	false	20										
100115	62	4002	114	20331	184	CDR	MSC_0001241019_101112.txt	863304627	false	Voice	CF	International	9986113289	9986113289	9367873756	9367873756				03/14/2020 13:01:00	03/14/2020 11:51:00	70	Outgoing	Normal Release	Postpaid	177456192345712	9986113289	MSC6	1	0					1	1	1	Ericssion							false	false	13										
100132	62	4002	131	23399	185	CDR	MSC_0001241019_101112.txt	1919038905	false	Voice	MTC	International	9986713289	9986713289	7734140377	7734140377				03/14/2020 20:09:00	03/14/2020 19:31:00	38	Incoming	Normal Release	Postpaid	177456192345717	9986713289	MSC3	1	0					1	1	1	Ericssion							false	true	20										
100162	62	4002	161	28776	185	CDR	MSC_0001241019_101112.txt	-849181129	false	SMS	MO SMS	International	9345637669	9345637669	9367853756	9367853756				03/14/2020 15:10:00	03/14/2020 15:10:00	0	Outgoing	Normal Release	Postpaid	177456192345708	9345637669	MSC3	1	0					1	1	1	Ericssion							false	true	15										
100192	62	4002	191	34186	176	CDR	MSC_0001241019_101112.txt	1886219450	false	SMS	MO SMS	Local	9986713288	9986713288	9369313756	9369313756				03/14/2020 11:02:00	03/14/2020 11:02:00	0	Outgoing	Normal Release	Prepaid	177456192345716	9986713288	MSC3	1	0					1	1	1	Ericssion							false	true	11										
100207	62	4002	206	36872	184	CDR	MSC_0001241019_101112.txt	1915258938	false	SMS	MT SMS	International	9986713288	9986713288	7734140377	7734140377				03/14/2020 19:06:00	03/14/2020 19:06:00	0	Incoming	Normal Release	Prepaid	177456192345716	9986713288	MSC8	1	0					1	1	1	Ericssion							false	false	19										
100214	62	4002	213	38114	175	CDR	MSC_0001241019_101112.txt	1868399355	false	SMS	MT SMS	NLD	9986713287	9986713287	9845300381	9845300381				03/14/2020 06:05:00	03/14/2020 06:05:00	0	Incoming	Normal Release	Postpaid	177456192345715	9986713287	MSC5	1	0					1	1	1	Ericssion							false	false	6										
100215	62	4002	214	38290	176	CDR	MSC_0001241019_101112.txt	1911539578	false	SMS	MT SMS	Local	9986713288	9986713288	9367853756	9367853756				03/14/2020 18:04:00	03/14/2020 18:04:00	0	Incoming	Normal Release	Prepaid	177456192345716	9986713288	MSC6	1	0					1	1	1	Ericssion							false	false	18										
100254	62	4002	253	45325	176	CDR	MSC_0001241019_101112.txt	-1627300146	false	Voice	MTC	NLD	9976113777	9976113777	7734140377	7734140377				03/14/2020 12:07:00	03/14/2020 10:07:00	120	Incoming	Normal Release	Postpaid	177456192345713	9986113777	MSC3	1	0					1	1	1	Ericssion							false	true	12										
100259	62	4002	258	46228	185	CDR	MSC_0001241019_101112.txt	-568474889	false	Voice	MTC	International	9976713279	9976713279	7734140377	7734140377				03/14/2020 20:09:00	03/14/2020 19:31:00	38	Incoming	Normal Release	Postpaid	177456192345717	9986713289	MSC3	1	0					1	1	1	Ericssion							false	true	20										
100012	62	4002	11	1787	185	CDR	MSC_0001241019_101112.txt	481884307	false	Voice	MTC	International	9986113289	9986113289	9367853756	9367853756				03/10/2020 03:04:00	03/10/2020 02:26:00	38	Incoming	Normal Release	Postpaid	177456192345712	9986113289	MSC1	1	0					1	1	1	Ericssion							false	false	3										
100013	62	4002	12	1973	175	CDR	MSC_0001241019_101112.txt	657318959	false	Voice	MTC	NLD	9986173287	9986173287	9767453756	9767453756				03/10/2020 04:05:00	03/10/2020 02:45:00	80	Incoming	Normal Release	Postpaid	177456192345714	9986173287	MSC2	1	0					1	1	1	Ericssion							false	false	4										
100030	62	4002	29	5055	187	CDR	MSC_0001241019_101112.txt	1238204977	false	Voice	MTC	International	9367453766	9367453766	9367853756	9367853756				03/10/2020 12:02:00	03/10/2020 10:02:00	120	Incoming	Normal Release	Postpaid	177456192345709	9367453766	MSC10	1	0					1	1	1	Ericssion							false	false	12										
100075	62	4002	74	13126	174	CDR	MSC_0001241019_101112.txt	1511819450	false	Voice	MTC	NLD	9986713288	9986713288	9367873756	9367873756				03/10/2020 03:02:00	03/10/2020 02:24:00	38	Incoming	Normal Release	Prepaid	177456192345716	9986713288	MSC6	1	0					1	1	1	Ericssion							false	false	3										
100105	62	4002	104	18511	177	CDR	MSC_0001241019_101112.txt	1583879483	false	Voice	MOC	Local	9986713287	9986713287	9369313756	9369313756				03/10/2020 23:03:00	03/10/2020 22:03:00	60	Outgoing	Normal Release	Postpaid	177456192345715	9986713287	MSC6	1	0					1	1	1	Ericssion							false	false	23										
100119	62	4002	118	21056	177	CDR	MSC_0001241019_101112.txt	475044629	false	Voice	MTC	Local	9986113287	9986113287	7734140377	7734140377				03/10/2020 01:10:00	03/10/2020 00:00:00	70	Incoming	Normal Release	Prepaid	177456192345710	9986113287	MSC10	1	0					1	1	1	Ericssion							false	false	1										
100182	62	4002	181	32361	185	CDR	MSC_0001241019_101112.txt	725899663	false	SMS	MT SMS	International	9986173287	9986173287	9367873756	9367873756				03/10/2020 23:08:00	03/10/2020 23:08:00	0	Incoming	Normal Release	Postpaid	177456192345714	9986173287	MSC3	1	0					1	1	1	Ericssion							false	true	23										
100193	62	4002	192	34363	184	CDR	MSC_0001241019_101112.txt	1551719002	false	SMS	MT SMS	International	9986713288	9986713288	9367453756	9367453756				03/10/2020 14:07:00	03/10/2020 14:07:00	0	Incoming	Normal Release	Prepaid	177456192345716	9986713288	MSC4	1	0					1	1	1	Ericssion							false	false	14										
100249	62	4002	248	44432	186	CDR	MSC_0001241019_101112.txt	-1206060617	false	SMS	MT SMS	International	9345637669	9345637669	9367853756	9367853756				03/10/2020 12:02:00	03/10/2020 12:02:00	0	Incoming	Normal Release	Postpaid	177456192345708	9345637669	MSC10	1	0					1	1	1	Ericssion							false	false	12										
100017	62	4002	16	2690	185	CDR	MSC_0001241019_101112.txt	-1231548326	false	Voice	MTC	International	9986713289	9986713289	7734140377	7734140377				03/28/2020 02:02:00	03/28/2020 00:52:00	70	Incoming	Normal Release	Postpaid	177456192345717	9986713289	MSC7	1	0					1	1	1	Ericssion							false	false	2										
100022	62	4002	21	3612	185	CDR	MSC_0001241019_101112.txt	-1202687750	false	Voice	MOC	International	9986713289	9986713289	9767453756	9767453756				03/28/2020 10:03:00	03/28/2020 09:25:00	38	Outgoing	Normal Release	Postpaid	177456192345717	9986713289	MSC2	1	0					1	1	1	Ericssion							false	false	10										
100037	62	4002	36	6318	177	CDR	MSC_0001241019_101112.txt	-2039308144	false	Voice	MTC	Local	9986173287	9986173287	9367453756	9367453756				03/28/2020 16:04:00	03/28/2020 14:54:00	70	Incoming	Normal Release	Postpaid	177456192345714	9986173287	MSC7	1	0					1	1	1	Ericssion							false	false	16										
100046	62	4002	45	7928	175	CDR	MSC_0001241019_101112.txt	389278936	false	Voice	MTC	NLD	9345637669	9345637669	9777453756	9777453756				03/28/2020 23:11:00	03/28/2020 21:51:00	80	Incoming	Normal Release	Postpaid	177456192345708	9345637669	MSC6	1	0					1	1	1	Ericssion							false	false	23										
100048	62	4002	47	8282	177	CDR	MSC_0001241019_101112.txt	-2061088336	false	Voice	MTC	Local	9986173287	9986173287	9367873756	9367873756				03/28/2020 10:01:00	03/28/2020 09:01:00	60	Incoming	Normal Release	Postpaid	177456192345714	9986173287	MSC8	1	0					1	1	1	Ericssion							false	false	10										
100064	62	4002	63	11150	175	CDR	MSC_0001241019_101112.txt	2087604692	false	Voice	MTC	NLD	9986113289	9986113289	9369313756	9369313756				03/28/2020 17:06:00	03/28/2020 16:06:00	60	Incoming	Normal Release	Postpaid	177456192345712	9986113289	MSC4	1	0					1	1	1	Ericssion							false	false	17										
100067	62	4002	66	11680	186	CDR	MSC_0001241019_101112.txt	2051872752	false	Voice	MTC	International	9986113777	9986113777	9845300379	9845300379				03/28/2020 07:08:00	03/28/2020 05:08:00	120	Incoming	Normal Release	Postpaid	177456192345713	9986113777	MSC7	1	0					1	1	1	Ericssion							false	false	7										
100068	62	4002	67	11867	185	CDR	MSC_0001241019_101112.txt	313199448	false	Voice	MTC	International	9345637669	9345637669	9367853756	9367853756				03/28/2020 02:03:00	03/28/2020 00:53:00	70	Incoming	Normal Release	Postpaid	177456192345708	9345637669	MSC8	1	0					1	1	1	Ericssion							false	false	2										
100074	62	4002	73	12940	185	CDR	MSC_0001241019_101112.txt	342539000	false	Voice	MTC	International	9345637669	9345637669	9367453756	9367453756				03/28/2020 10:12:00	03/28/2020 09:12:00	60	Incoming	Normal Release	Postpaid	177456192345708	9345637669	MSC5	1	0					1	1	1	Ericssion							false	false	10										
100089	62	4002	88	15632	186	CDR	MSC_0001241019_101112.txt	-1515542894	false	Voice	MOC	International	9367453766	9367453766	9369313756	9369313756				03/28/2020 08:09:00	03/28/2020 06:49:00	80	Outgoing	Normal Release	Postpaid	177456192345709	9367453766	MSC10	1	0					1	1	1	Ericssion							false	false	8										
100102	62	4002	101	17971	186	CDR	MSC_0001241019_101112.txt	2055384116	false	Voice	MOC	International	9986113289	9986113289	9369313756	9369313756				03/28/2020 08:09:00	03/28/2020 06:09:00	120	Outgoing	Normal Release	Postpaid	177456192345712	9986113289	MSC3	1	0					1	1	1	Ericssion							false	true	8										
100218	62	4002	217	38839	177	CDR	MSC_0001241019_101112.txt	-1198847750	false	SMS	MO SMS	Local	9986713289	9986713289	9367873756	9367873756				03/28/2020 11:07:00	03/28/2020 11:07:00	0	Outgoing	Normal Release	Postpaid	177456192345717	9986713289	MSC9	1	0					1	1	1	Ericssion							false	false	11										
100228	62	4002	227	40641	174	CDR	MSC_0001241019_101112.txt	2026764758	false	SMS	MO SMS	NLD	9986113287	9986113287	9369313756	9369313756				03/28/2020 00:12:00	03/28/2020 00:12:00	0	Outgoing	Normal Release	Prepaid	177456192345710	9986113287	MSC9	1	0					1	1	1	Ericssion							false	false	0										
100236	62	4002	235	42094	175	CDR	MSC_0001241019_101112.txt	2033512112	false	SMS	MT SMS	NLD	9986113777	9986113777	7734140377	7734140377				03/28/2020 02:02:00	03/28/2020 02:02:00	0	Incoming	Normal Release	Postpaid	177456192345713	9986113777	MSC7	1	0					1	1	1	Ericssion							false	false	2										
100241	62	4002	240	42998	177	CDR	MSC_0001241019_101112.txt	2062552112	false	MMS	MO MMS	Local	9986113777	9986113777	9369313756	9369313756				03/28/2020 10:06:00	03/28/2020 10:06:00	0	Outgoing	Normal Release	Postpaid	177456192345713	9986113777	MSC2	1	0					1	1	1	Ericssion							false	false	10										
100002	62	4002	1	0	174	CDR	MSC_0001241019_101112.txt	1001038874	false	Voice	MTC	NLD	9986713288	9986713288	9367453756	9367453756				03/04/2020 05:09:00	03/04/2020 03:59:00	70	Incoming	Normal Release	Prepaid	177456192345716	9986713288	MSC1	1	0					1	1	1	Ericssion							false	false	5										
100005	62	4002	4	528	174	CDR	MSC_0001241019_101112.txt	983038874	false	Voice	MTC	NLD	9986713288	9986713288	9845300381	9845300381				03/04/2020 00:09:00	03/03/2020 23:09:00	60	Incoming	Normal Release	Prepaid	177456192345716	9986713288	MSC4	1	0					1	1	1	Ericssion							false	false	0										
100016	62	4002	15	2513	176	CDR	MSC_0001241019_101112.txt	-43595309	false	Voice	MTC	NLD	9986113289	9986113289	9367853756	9367853756				03/04/2020 01:06:00	03/03/2020 23:06:00	120	Incoming	Normal Release	Postpaid	177456192345712	9986113289	MSC5	1	0					1	1	1	Ericssion							false	false	1										
100035	62	4002	34	5956	174	CDR	MSC_0001241019_101112.txt	1051139066	false	Voice	MTC	NLD	9986713288	9986713288	9777453756	9777453756				03/04/2020 19:04:00	03/04/2020 18:26:00	38	Incoming	Normal Release	Prepaid	177456192345716	9986713288	MSC5	1	0					1	1	1	Ericssion							false	false	19										
100070	62	4002	69	12229	177	CDR	MSC_0001241019_101112.txt	1040278971	false	Voice	MTC	Local	9986713287	9986713287	9367873756	9367873756				03/04/2020 16:03:00	03/04/2020 14:43:00	80	Incoming	Normal Release	Postpaid	177456192345715	9986713287	MSC1	1	0					1	1	1	Ericssion							false	false	16										
100091	62	4002	90	15995	176	CDR	MSC_0001241019_101112.txt	17724757	false	Voice	MOC	Local	9986113287	9986113287	7734140377	7734140377				03/04/2020 18:08:00	03/04/2020 17:08:00	60	Outgoing	Normal Release	Prepaid	177456192345710	9986113287	MSC2	1	0					1	1	1	Ericssion							false	false	18										
100108	62	4002	107	19061	186	CDR	MSC_0001241019_101112.txt	986699481	false	Voice	MTC	International	9986713289	9986713289	9767453756	9767453756				03/04/2020 01:10:00	03/03/2020 23:10:00	120	Incoming	Normal Release	Postpaid	177456192345717	9986713289	MSC9	1	0					1	1	1	Ericssion							false	false	1										
100111	62	4002	110	19619	174	CDR	MSC_0001241019_101112.txt	-43655373	false	Voice	CF	NLD	9986113289	9986113289	9369313756	9369313756				03/04/2020 01:05:00	03/04/2020 00:05:00	60	Outgoing	Normal Release	Postpaid	177456192345712	9986113289	MSC2	1	0					1	1	1	Ericssion							false	false	1										
100234	62	4002	233	41731	185	CDR	MSC_0001241019_101112.txt	-43595309	false	SMS	MT SMS	International	9986113289	9986113289	9367853756	9367853756				03/04/2020 01:06:00	03/04/2020 01:06:00	0	Incoming	Normal Release	Postpaid	177456192345712	9986113289	MSC5	1	0					1	1	1	Ericssion							false	false	1										
100006	62	4002	5	703	177	CDR	MSC_0001241019_101112.txt	258952623	false	Voice	MTC	Local	9986113777	9986113777	9367853756	9367853756				03/07/2020 13:06:00	03/07/2020 12:28:00	38	Incoming	Normal Release	Postpaid	177456192345713	9986113777	MSC5	1	0					1	1	1	Ericssion							false	false	13										
100019	62	4002	18	3062	185	CDR	MSC_0001241019_101112.txt	1004505041	false	Voice	MOC	International	9367453766	9367453766	9845300381	9845300381				03/07/2020 19:07:00	03/07/2020 17:47:00	80	Outgoing	Normal Release	Postpaid	177456192345709	9367453766	MSC9	1	0					1	1	1	Ericssion							false	false	19										
100076	62	4002	75	13301	175	CDR	MSC_0001241019_101112.txt	287724307	false	Voice	MOC	NLD	9986113289	9986113289	9777453756	9777453756				03/07/2020 21:08:00	03/07/2020 20:30:00	38	Outgoing	Normal Release	Postpaid	177456192345712	9986113289	MSC7	1	0					1	1	1	Ericssion							false	false	21										
100086	62	4002	85	15092	177	CDR	MSC_0001241019_101112.txt	294924819	false	Voice	MTC	Local	9986113289	9986113289	9367453756	9367453756				03/07/2020 23:08:00	03/07/2020 22:08:00	60	Incoming	Normal Release	Postpaid	177456192345712	9986113289	MSC7	1	0					1	1	1	Ericssion							false	false	23										
100090	62	4002	89	15819	175	CDR	MSC_0001241019_101112.txt	459558959	false	Voice	MOC	NLD	9986173287	9986173287	9887453756	9887453756				03/07/2020 21:09:00	03/07/2020 20:09:00	60	Outgoing	Normal Release	Postpaid	177456192345714	9986173287	MSC1	1	0					1	1	1	Ericssion							false	false	21										
100117	62	4002	116	20701	176	CDR	MSC_0001241019_101112.txt	244704693	false	Voice	MTC	Local	9986113287	9986113287	9887453756	9887453756				03/07/2020 09:11:00	03/07/2020 08:33:00	38	Incoming	Normal Release	Prepaid	177456192345710	9986113287	MSC8	1	0					1	1	1	Ericssion							false	false	9										
100204	62	4002	203	36342	174	CDR	MSC_0001241019_101112.txt	273504724	false	SMS	MT SMS	NLD	9986113288	9986113288	9767453756	9767453756				03/07/2020 17:11:00	03/07/2020 17:11:00	0	Incoming	Normal Release	Prepaid	177456192345711	9986113288	MSC5	1	0					1	1	1	Ericssion							false	false	17										
100205	62	4002	204	36517	176	CDR	MSC_0001241019_101112.txt	219024693	false	SMS	MO SMS	Local	9986113287	9986113287	9777453756	9777453756				03/07/2020 02:03:00	03/07/2020 02:03:00	0	Outgoing	Normal Release	Prepaid	177456192345710	9986113287	MSC6	1	0					1	1	1	Ericssion							false	false	2										
100229	62	4002	228	40816	186	CDR	MSC_0001241019_101112.txt	989744401	false	SMS	MT SMS	International	9367453766	9367453766	9887453756	9887453756				03/07/2020 15:01:00	03/07/2020 15:01:00	0	Incoming	Normal Release	Postpaid	177456192345709	9367453766	MSC10	1	0					1	1	1	Ericssion							false	false	15										
100238	62	4002	237	42448	185	CDR	MSC_0001241019_101112.txt	1004505041	false	SMS	MO SMS	International	9367453766	9367453766	9845300379	9845300379				03/07/2020 19:07:00	03/07/2020 19:07:00	0	Outgoing	Normal Release	Postpaid	177456192345709	9367453766	MSC9	1	0					1	1	1	Ericssion							false	false	19										
100011	62	4002	10	1609	177	CDR	MSC_0001241019_101112.txt	2052119002	false	Voice	MOC	Local	9986713288	9986713288	9367853756	9367853756				03/16/2020 09:07:00	03/16/2020 07:47:00	80	Outgoing	Normal Release	Prepaid	177456192345716	9986713288	MSC10	1	0					1	1	1	Ericssion							false	false	9										
100062	62	4002	61	10796	176	CDR	MSC_0001241019_101112.txt	1179558959	false	Voice	MTC	NLD	9986173287	9986173287	9367873756	9367873756				03/16/2020 05:09:00	03/16/2020 03:09:00	120	Incoming	Normal Release	Postpaid	177456192345714	9986173287	MSC2	1	0					1	1	1	Ericssion							false	false	5										
100078	62	4002	77	13662	175	CDR	MSC_0001241019_101112.txt	1236979535	false	Voice	MTC	NLD	9986173287	9986173287	9767453756	9767453756				03/16/2020 21:06:00	03/16/2020 19:56:00	70	Incoming	Normal Release	Postpaid	177456192345714	9986173287	MSC9	1	0					1	1	1	Ericssion							false	false	21										
100088	62	4002	87	15455	176	CDR	MSC_0001241019_101112.txt	1768005105	false	Voice	MOC	NLD	9367453766	9367453766	9845300379	9845300379				03/16/2020 15:12:00	03/16/2020 13:12:00	120	Outgoing	Normal Release	Postpaid	177456192345709	9367453766	MSC9	1	0					1	1	1	Ericssion							false	false	15										
100100	62	4002	99	17614	177	CDR	MSC_0001241019_101112.txt	1021944627	false	Voice	MTC	Local	9986113289	9986113289	7734140377	7734140377				03/16/2020 09:05:00	03/16/2020 07:45:00	80	Incoming	Normal Release	Postpaid	177456192345712	9986113289	MSC1	1	0					1	1	1	Ericssion							false	false	9										
100106	62	4002	105	18689	185	CDR	MSC_0001241019_101112.txt	997252175	false	Voice	MOC	International	9986113777	9986113777	9845300381	9845300381				03/16/2020 02:11:00	03/16/2020 01:33:00	38	Outgoing	Normal Release	Postpaid	177456192345713	9986113777	MSC7	1	0					1	1	1	Ericssion							false	false	2										
100170	62	4002	169	30211	175	CDR	MSC_0001241019_101112.txt	1193659663	false	SMS	MO SMS	NLD	9986173287	9986173287	9845300379	9845300379				03/16/2020 09:04:00	03/16/2020 09:04:00	0	Outgoing	Normal Release	Postpaid	177456192345714	9986173287	MSC1	1	0					1	1	1	Ericssion							false	false	9										
100212	62	4002	211	37761	177	CDR	MSC_0001241019_101112.txt	1046904627	false	SMS	MO SMS	Local	9986113289	9986113289	9777453756	9777453756				03/16/2020 16:01:00	03/16/2020 16:01:00	0	Outgoing	Normal Release	Postpaid	177456192345712	9986113289	MSC3	1	0					1	1	1	Ericssion							false	true	16										
100014	62	4002	13	2149	177	CDR	MSC_0001241019_101112.txt	82524307	false	Voice	MTC	Local	9986113289	9986113289	9367853756	9367853756				03/05/2020 12:08:00	03/05/2020 10:48:00	80	Incoming	Normal Release	Postpaid	177456192345712	9986113289	MSC3	1	0					1	1	1	Ericssion							false	true	12										
100056	62	4002	55	9723	186	CDR	MSC_0001241019_101112.txt	225439599	false	Voice	MOC	International	9986173287	9986173287	9767453756	9767453756				03/05/2020 04:07:00	03/05/2020 02:07:00	120	Outgoing	Normal Release	Postpaid	177456192345714	9986173287	MSC6	1	0					1	1	1	Ericssion							false	false	4										
100107	62	4002	106	18875	185	CDR	MSC_0001241019_101112.txt	50092047	false	Voice	MTC	International	9986113777	9986113777	9845300381	9845300381				03/05/2020 03:05:00	03/05/2020 02:05:00	60	Incoming	Normal Release	Postpaid	177456192345713	9986113777	MSC8	1	0					1	1	1	Ericssion							false	false	3										
100114	62	4002	113	20146	184	CDR	MSC_0001241019_101112.txt	64104115	false	Voice	CF	International	9986113289	9986113289	7734140377	7734140377				03/05/2020 07:01:00	03/05/2020 06:01:00	60	Outgoing	Normal Release	Postpaid	177456192345712	9986113289	MSC5	1	0					1	1	1	Ericssion							false	false	7										
100136	62	4002	135	24122	177	CDR	MSC_0001241019_101112.txt	46224755	false	Voice	MTC	Local	9986113289	9986113289	9777453756	9777453756				03/05/2020 02:03:00	03/05/2020 00:43:00	80	Incoming	Normal Release	Postpaid	177456192345712	9986113289	MSC7	1	0					1	1	1	Ericssion							false	false	2										
100140	62	4002	139	24830	175	CDR	MSC_0001241019_101112.txt	-1648801065	false	Voice	MOC	NLD	9345637669	9345637669	9367873756	9367873756				03/05/2020 09:03:00	03/05/2020 08:03:00	60	Outgoing	Normal Release	Postpaid	177456192345708	9345637669	MSC1	1	0					1	1	1	Ericssion							false	false	9										
100149	62	4002	148	26451	175	CDR	MSC_0001241019_101112.txt	75384565	false	Voice	MOC	NLD	9986113287	9986113287	9845300381	9845300381				03/05/2020 10:09:00	03/05/2020 08:49:00	80	Outgoing	Normal Release	Prepaid	177456192345710	9986113287	MSC10	1	0					1	1	1	Ericssion							false	false	10										
100164	62	4002	163	29140	175	CDR	MSC_0001241019_101112.txt	803024913	false	SMS	MT SMS	NLD	9367453766	9367453766	7734140377	7734140377				03/05/2020 11:09:00	03/05/2020 11:09:00	0	Incoming	Normal Release	Postpaid	177456192345709	9367453766	MSC5	1	0					1	1	1	Ericssion							false	false	11										
100223	62	4002	222	39733	185	CDR	MSC_0001241019_101112.txt	781364593	false	SMS	MT SMS	International	9367453766	9367453766	9367453756	9367453756				03/05/2020 05:08:00	03/05/2020 05:08:00	0	Incoming	Normal Release	Postpaid	177456192345709	9367453766	MSC4	1	0					1	1	1	Ericssion							false	false	5										
100251	62	4002	250	44797	177	CDR	MSC_0001241019_101112.txt	1889977809	false	Voice	MTC	Local	9976113279	9976113279	9367753756	9367753756				03/05/2020 12:08:00	03/05/2020 10:48:00	80	Incoming	Normal Release	Postpaid	177456192345712	9986113289	MSC3	1	0					1	1	1	Ericssion							false	true	12										
100258	62	4002	257	46041	186	CDR	MSC_0001241019_101112.txt	-432129678	false	Voice	MTC	International	9976113279	9976113279	9369313756	9369313756				03/28/2020 08:09:00	03/28/2020 06:09:00	120	Outgoing	Normal Release	Postpaid	177456192345712	9986113289	MSC3	1	0					1	1	1	Ericssion							false	true	8										
100020	62	4002	19	3248	177	CDR	MSC_0001241019_101112.txt	1958304725	false	Voice	MOC	Local	9986113288	9986113288	9887453756	9887453756				03/27/2020 05:11:00	03/27/2020 03:51:00	80	Outgoing	Normal Release	Prepaid	177456192345711	9986113288	MSC10	1	0					1	1	1	Ericssion							false	false	5										
100031	62	4002	30	5243	176	CDR	MSC_0001241019_101112.txt	-1274567878	false	Voice	CF	Local	9986713289	9986713289	9367453756	9367453756				03/27/2020 14:05:00	03/27/2020 13:27:00	38	Outgoing	Normal Release	Postpaid	177456192345717	9986713289	MSC1	1	0					1	1	1	Ericssion							false	false	14										
100034	62	4002	33	5780	175	CDR	MSC_0001241019_101112.txt	-2110827632	false	Voice	MTC	NLD	9986173287	9986173287	9887453756	9887453756				03/27/2020 20:12:00	03/27/2020 19:12:00	60	Incoming	Normal Release	Postpaid	177456192345714	9986173287	MSC4	1	0					1	1	1	Ericssion							false	false	20										
100138	62	4002	137	24478	175	CDR	MSC_0001241019_101112.txt	223259512	false	Voice	MTC	NLD	9345637669	9345637669	9367853756	9367853756				03/27/2020 01:04:00	03/27/2020 00:26:00	38	Incoming	Normal Release	Postpaid	177456192345708	9345637669	MSC9	1	0					1	1	1	Ericssion							false	false	1										
100142	62	4002	141	25192	176	CDR	MSC_0001241019_101112.txt	2011884277	false	Voice	MTC	Local	9986113288	9986113288	9767453756	9767453756				03/27/2020 20:04:00	03/27/2020 18:44:00	80	Incoming	Normal Release	Prepaid	177456192345711	9986113288	MSC3	1	0					1	1	1	Ericssion							false	true	20										
100150	62	4002	149	26627	184	CDR	MSC_0001241019_101112.txt	1939824213	false	SMS	MT SMS	International	9986113288	9986113288	9887453756	9887453756				03/27/2020 00:03:00	03/27/2020 00:03:00	0	Incoming	Normal Release	Prepaid	177456192345711	9986113288	MSC1	1	0					1	1	1	Ericssion							false	false	0										
100151	62	4002	150	26812	177	CDR	MSC_0001241019_101112.txt	-1583942894	false	SMS	MT SMS	Local	9367453766	9367453766	9845300381	9845300381				03/27/2020 13:09:00	03/27/2020 13:09:00	0	Incoming	Normal Release	Postpaid	177456192345709	9367453766	MSC2	1	0					1	1	1	Ericssion							false	false	13										
100186	62	4002	185	33094	177	CDR	MSC_0001241019_101112.txt	1976304244	false	SMS	MT SMS	Local	9986113289	9986113289	9845300379	9845300379				03/27/2020 10:11:00	03/27/2020 10:11:00	0	Incoming	Normal Release	Postpaid	177456192345712	9986113289	MSC7	1	0					1	1	1	Ericssion							false	false	10										
100027	62	4002	26	4524	175	CDR	MSC_0001241019_101112.txt	-2037842702	false	Voice	MTC	NLD	9367453766	9367453766	7734140377	7734140377				03/22/2020 07:04:00	03/22/2020 05:54:00	70	Incoming	Normal Release	Postpaid	177456192345709	9367453766	MSC7	1	0					1	1	1	Ericssion							false	false	7										
100044	62	4002	43	7576	176	CDR	MSC_0001241019_101112.txt	1540552624	false	Voice	MTC	NLD	9986113777	9986113777	9367853756	9367853756				03/22/2020 09:06:00	03/22/2020 07:06:00	120	Incoming	Normal Release	Postpaid	177456192345713	9986113777	MSC4	1	0					1	1	1	Ericssion							false	false	9										
100092	62	4002	91	16172	177	CDR	MSC_0001241019_101112.txt	-136620616	false	Voice	MTC	Local	9345637669	9345637669	9845300379	9845300379				03/22/2020 21:06:00	03/22/2020 20:06:00	60	Incoming	Normal Release	Postpaid	177456192345708	9345637669	MSC3	1	0					1	1	1	Ericssion							false	true	21										
100095	62	4002	94	16702	185	CDR	MSC_0001241019_101112.txt	1540644661	false	Voice	MTC	International	9986113288	9986113288	9845300379	9845300379				03/22/2020 09:10:00	03/22/2020 07:10:00	120	Incoming	Normal Release	Prepaid	177456192345711	9986113288	MSC6	1	0					1	1	1	Ericssion							false	false	9										
100133	62	4002	132	23585	184	CDR	MSC_0001241019_101112.txt	1558464182	false	Voice	MOC	International	9986113287	9986113287	9845300379	9845300379				03/22/2020 14:07:00	03/22/2020 12:57:00	70	Outgoing	Normal Release	Prepaid	177456192345710	9986113287	MSC4	1	0					1	1	1	Ericssion							false	false	14										
100148	62	4002	147	26273	177	CDR	MSC_0001241019_101112.txt	-1749587687	false	Voice	MTC	Local	9986713289	9986713289	9367873756	9367873756				03/22/2020 02:08:00	03/22/2020 00:48:00	80	Incoming	Normal Release	Postpaid	177456192345717	9986713289	MSC9	1	0					1	1	1	Ericssion							false	false	2										
100157	62	4002	156	27880	175	CDR	MSC_0001241019_101112.txt	-2048282830	false	SMS	MO SMS	NLD	9367453766	9367453766	9367453756	9367453756				03/22/2020 04:10:00	03/22/2020 04:10:00	0	Outgoing	Normal Release	Postpaid	177456192345709	9367453766	MSC8	1	0					1	1	1	Ericssion							false	false	4										
100167	62	4002	166	29670	175	CDR	MSC_0001241019_101112.txt	-2062802703	false	SMS	MT SMS	NLD	9367453766	9367453766	9845300379	9845300379				03/22/2020 00:08:00	03/22/2020 00:08:00	0	Incoming	Normal Release	Postpaid	177456192345709	9367453766	MSC8	1	0					1	1	1	Ericssion							false	false	0										
100169	62	4002	168	30032	178	CDR	MSC_0001241019_101112.txt	1733599600	false	SMS	MO SMS	Local	9986173287	9986173287	7734140377	7734140377				03/22/2020 15:03:00	03/22/2020 15:03:00	0	Outgoing	Normal Release	Postpaid	177456192345714	9986173287	MSC10	1	0					1	1	1	Ericssion							false	false	15										
100233	62	4002	232	41545	185	CDR	MSC_0001241019_101112.txt	1573192624	false	SMS	MT SMS	International	9986113777	9986113777	9369313756	9369313756				03/22/2020 18:10:00	03/22/2020 18:10:00	0	Incoming	Normal Release	Postpaid	177456192345713	9986113777	MSC4	1	0					1	1	1	Ericssion							false	false	18										
100246	62	4002	245	43904	174	CDR	MSC_0001241019_101112.txt	1533084246	false	MMS	MT MMS	NLD	9986113287	9986113287	7734140377	7734140377				03/22/2020 07:04:00	03/22/2020 07:04:00	0	Incoming	Normal Release	Prepaid	177456192345710	9986113287	MSC7	1	0					1	1	1	Ericssion							false	false	7										
100008	62	4002	7	1059	177	CDR	MSC_0001241019_101112.txt	-223895885	false	Voice	MOC	Local	9986113289	9986113289	9367853756	9367853756				03/01/2020 23:01:00	03/01/2020 21:51:00	70	Outgoing	Normal Release	Postpaid	177456192345712	9986113289	MSC7	1	0					1	1	1	Ericssion							false	false	23										
100040	62	4002	39	6860	176	CDR	MSC_0001241019_101112.txt	-252307953	false	Voice	MTC	NLD	9986113777	9986113777	9367853756	9367853756				03/01/2020 15:05:00	03/01/2020 13:45:00	80	Incoming	Normal Release	Postpaid	177456192345713	9986113777	MSC10	1	0					1	1	1	Ericssion							false	false	15										
100061	62	4002	60	10620	175	CDR	MSC_0001241019_101112.txt	-306367761	false	Voice	MOC	NLD	9986113777	9986113777	9887453756	9887453756				03/01/2020 00:04:00	04/30/2013 22:44:00	80	Outgoing	Normal Release	Postpaid	177456192345713	9986113777	MSC1	1	0					1	1	1	Ericssion							false	false	0										
100098	62	4002	97	17241	185	CDR	MSC_0001241019_101112.txt	752519545	false	Voice	MTC	International	9986713289	9986713289	9367873756	9367873756				03/01/2020 08:07:00	03/01/2020 07:29:00	38	Incoming	Normal Release	Postpaid	177456192345717	9986713289	MSC9	1	0					1	1	1	Ericssion							false	false	8										
100129	62	4002	128	22858	178	CDR	MSC_0001241019_101112.txt	759358905	false	Voice	MOC	Local	9986713289	9986713289	9367453756	9367453756				03/01/2020 10:01:00	03/01/2020 08:51:00	70	Outgoing	Normal Release	Postpaid	177456192345717	9986713289	MSC10	1	0					1	1	1	Ericssion							false	false	10										
100146	62	4002	145	25912	185	CDR	MSC_0001241019_101112.txt	436004593	false	Voice	MTC	International	9367453766	9367453766	9845300379	9845300379				03/01/2020 05:12:00	03/01/2020 04:34:00	38	Incoming	Normal Release	Postpaid	177456192345709	9367453766	MSC7	1	0					1	1	1	Ericssion							false	false	5										
100226	62	4002	225	40279	175	CDR	MSC_0001241019_101112.txt	500624913	false	SMS	MO SMS	NLD	9367453766	9367453766	9845300379	9845300379				03/01/2020 23:09:00	03/01/2020 23:09:00	0	Outgoing	Normal Release	Postpaid	177456192345709	9367453766	MSC7	1	0					1	1	1	Ericssion							false	false	23										
100010	62	4002	9	1422	186	CDR	MSC_0001241019_101112.txt	1595159033	false	Voice	MOC	International	9986713289	9986713289	9845300381	9845300381				03/11/2020 02:11:00	03/11/2020 00:11:00	120	Outgoing	Normal Release	Postpaid	177456192345717	9986713289	MSC9	1	0					1	1	1	Ericssion							false	false	2										
100021	62	4002	20	3426	185	CDR	MSC_0001241019_101112.txt	805039087	false	Voice	MOC	International	9986173287	9986173287	9845300379	9845300379				03/11/2020 21:07:00	03/11/2020 20:29:00	38	Outgoing	Normal Release	Postpaid	177456192345714	9986173287	MSC1	1	0					1	1	1	Ericssion							false	false	21										
100023	62	4002	22	3798	174	CDR	MSC_0001241019_101112.txt	636504053	false	Voice	MOC	NLD	9986113287	9986113287	9845300381	9845300381				03/11/2020 22:01:00	03/11/2020 21:23:00	38	Outgoing	Normal Release	Prepaid	177456192345710	9986113287	MSC3	1	0					1	1	1	Ericssion							false	true	22										
100028	62	4002	27	4700	177	CDR	MSC_0001241019_101112.txt	-1112461129	false	Voice	MTC	Local	9345637669	9345637669	9367853756	9367853756				03/11/2020 14:02:00	03/11/2020 12:42:00	80	Incoming	Normal Release	Postpaid	177456192345708	9345637669	MSC8	1	0					1	1	1	Ericssion							false	false	14										
100036	62	4002	35	6131	186	CDR	MSC_0001241019_101112.txt	-1098061129	false	Voice	MOC	International	9345637669	9345637669	9367853756	9367853756				03/11/2020 18:02:00	03/11/2020 16:02:00	120	Outgoing	Normal Release	Postpaid	177456192345708	9345637669	MSC6	1	0					1	1	1	Ericssion							false	false	18										
100045	62	4002	44	7753	174	CDR	MSC_0001241019_101112.txt	1626958874	false	Voice	MTC	NLD	9986713288	9986713288	7734140377	7734140377				03/11/2020 11:01:00	03/11/2020 09:41:00	80	Incoming	Normal Release	Prepaid	177456192345716	9986713288	MSC5	1	0					1	1	1	Ericssion							false	false	11										
100049	62	4002	48	8460	184	CDR	MSC_0001241019_101112.txt	564924788	false	Voice	MOC	International	9986113288	9986113288	9367853756	9367853756				03/11/2020 02:08:00	03/11/2020 00:48:00	80	Outgoing	Normal Release	Prepaid	177456192345711	9986113288	MSC9	1	0					1	1	1	Ericssion							false	false	2										
100084	62	4002	83	14739	175	CDR	MSC_0001241019_101112.txt	-1119420617	false	Voice	MOC	NLD	9345637669	9345637669	9369313756	9369313756				03/11/2020 12:06:00	03/11/2020 11:06:00	60	Outgoing	Normal Release	Postpaid	177456192345708	9345637669	MSC5	1	0					1	1	1	Ericssion							false	false	12										
100093	62	4002	92	16350	174	CDR	MSC_0001241019_101112.txt	1652579578	false	Voice	MOC	NLD	9986713288	9986713288	9367853756	9367853756				03/11/2020 18:08:00	03/11/2020 16:58:00	70	Outgoing	Normal Release	Prepaid	177456192345716	9986713288	MSC4	1	0					1	1	1	Ericssion							false	false	18										
100112	62	4002	111	19794	176	CDR	MSC_0001241019_101112.txt	1620359545	false	Voice	CF	Local	9986713289	9986713289	9845300379	9845300379				03/11/2020 09:11:00	03/11/2020 07:51:00	80	Outgoing	Normal Release	Postpaid	177456192345717	9986713289	MSC3	1	0					1	1	1	Ericssion							false	true	9										
100113	62	4002	112	19971	174	CDR	MSC_0001241019_101112.txt	640284276	false	Voice	CF	NLD	9986113288	9986113288	9367873756	9367873756				03/11/2020 23:04:00	03/11/2020 21:04:00	120	Outgoing	Normal Release	Prepaid	177456192345711	9986113288	MSC4	1	0					1	1	1	Ericssion							false	false	23										
100156	62	4002	155	27704	175	CDR	MSC_0001241019_101112.txt	633144627	false	SMS	MT SMS	NLD	9986113289	9986113289	9367853756	9367853756				03/11/2020 21:05:00	03/11/2020 21:05:00	0	Incoming	Normal Release	Postpaid	177456192345712	9986113289	MSC7	1	0					1	1	1	Ericssion							false	false	21										
100200	62	4002	199	35634	176	CDR	MSC_0001241019_101112.txt	1591619066	false	SMS	MT SMS	Local	9986713288	9986713288	9367853756	9367853756				03/11/2020 01:12:00	03/11/2020 01:12:00	0	Incoming	Normal Release	Prepaid	177456192345716	9986713288	MSC1	1	0					1	1	1	Ericssion							false	false	1										
100206	62	4002	205	36694	177	CDR	MSC_0001241019_101112.txt	1281705041	false	SMS	MO SMS	Local	9367453766	9367453766	9369313756	9369313756				03/11/2020 00:07:00	03/11/2020 00:07:00	0	Outgoing	Normal Release	Postpaid	177456192345709	9367453766	MSC7	1	0					1	1	1	Ericssion							false	false	0										
100216	62	4002	215	38467	185	CDR	MSC_0001241019_101112.txt	812299663	false	SMS	MO SMS	International	9986173287	9986173287	9887453756	9887453756				03/11/2020 23:08:00	03/11/2020 23:08:00	0	Outgoing	Normal Release	Postpaid	177456192345714	9986173287	MSC7	1	0					1	1	1	Ericssion							false	false	23										
100219	62	4002	218	39017	175	CDR	MSC_0001241019_101112.txt	593484757	false	SMS	MO SMS	NLD	9986113287	9986113287	9369313756	9369313756				03/11/2020 10:04:00	03/11/2020 10:04:00	0	Outgoing	Normal Release	Prepaid	177456192345710	9986113287	MSC10	1	0					1	1	1	Ericssion							false	false	10										
100235	62	4002	234	41917	176	CDR	MSC_0001241019_101112.txt	1634339578	false	SMS	MO SMS	Local	9986713288	9986713288	7734140377	7734140377				03/11/2020 13:04:00	03/11/2020 13:04:00	0	Outgoing	Normal Release	Prepaid	177456192345716	9986713288	MSC6	1	0					1	1	1	Ericssion							false	false	13										
100240	62	4002	239	42821	176	CDR	MSC_0001241019_101112.txt	633264181	false	MMS	MO MMS	Local	9986113287	9986113287	9367853756	9367853756				03/11/2020 21:07:00	03/11/2020 21:07:00	0	Outgoing	Normal Release	Prepaid	177456192345710	9986113287	MSC1	1	0					1	1	1	Ericssion							false	false	21										
100242	62	4002	241	43176	177	CDR	MSC_0001241019_101112.txt	1666558905	false	MMS	MO MMS	Local	9986713289	9986713289	9845300381	9845300381				03/11/2020 22:01:00	03/11/2020 22:01:00	0	Outgoing	Normal Release	Postpaid	177456192345717	9986713289	MSC3	1	0					1	1	1	Ericssion							false	true	22										
100247	62	4002	246	44079	177	CDR	MSC_0001241019_101112.txt	607912111	false	MMS	MT MMS	Local	9986113777	9986113777	9367853756	9367853756				03/11/2020 14:02:00	03/11/2020 14:02:00	0	Incoming	Normal Release	Postpaid	177456192345713	9986113777	MSC8	1	0					1	1	1	Ericssion							false	false	14										
100252	62	4002	251	44975	174	CDR	MSC_0001241019_101112.txt	-1851009741	false	Voice	MTC	NLD	9976113277	9976113277	9745300371	9745300371				03/11/2020 22:01:00	03/11/2020 21:23:00	38	Outgoing	Normal Release	Prepaid	177456192345710	9986113287	MSC3	1	0					1	1	1	Ericssion							false	true	22										
100015	62	4002	14	2327	185	CDR	MSC_0001241019_101112.txt	968212175	false	Voice	MTC	International	9986113777	9986113777	9369313756	9369313756				03/15/2020 18:07:00	03/15/2020 17:07:00	60	Incoming	Normal Release	Postpaid	177456192345713	9986113777	MSC4	1	0					1	1	1	Ericssion							false	false	18										
100018	62	4002	17	2876	185	CDR	MSC_0001241019_101112.txt	1954919033	false	Voice	MTC	International	9986713289	9986713289	9367873756	9367873756				03/15/2020 06:07:00	03/15/2020 05:29:00	38	Incoming	Normal Release	Postpaid	177456192345717	9986713289	MSC8	1	0					1	1	1	Ericssion							false	false	6										
100066	62	4002	65	11502	177	CDR	MSC_0001241019_101112.txt	928164629	false	Voice	MOC	Local	9986113287	9986113287	9369313756	9369313756				03/15/2020 07:02:00	03/15/2020 05:02:00	120	Outgoing	Normal Release	Prepaid	177456192345710	9986113287	MSC6	1	0					1	1	1	Ericssion							false	false	7										
100099	62	4002	98	17427	186	CDR	MSC_0001241019_101112.txt	1965539578	false	Voice	MTC	International	9986713288	9986713288	9887453756	9887453756				03/15/2020 09:04:00	03/15/2020 07:04:00	120	Incoming	Normal Release	Prepaid	177456192345716	9986713288	MSC10	1	0					1	1	1	Ericssion							false	false	9										
100201	62	4002	200	35811	174	CDR	MSC_0001241019_101112.txt	978624181	false	SMS	MT SMS	NLD	9986113287	9986113287	9369313756	9369313756				03/15/2020 21:03:00	03/15/2020 21:03:00	0	Incoming	Normal Release	Prepaid	177456192345710	9986113287	MSC2	1	0					1	1	1	Ericssion							false	false	21										
100237	62	4002	236	42270	177	CDR	MSC_0001241019_101112.txt	1096639087	false	SMS	MT SMS	Local	9986173287	9986173287	9887453756	9887453756				03/15/2020 06:07:00	03/15/2020 06:07:00	0	Incoming	Normal Release	Postpaid	177456192345714	9986173287	MSC8	1	0					1	1	1	Ericssion							false	false	6										
100025	62	4002	24	4152	185	CDR	MSC_0001241019_101112.txt	1414619481	false	Voice	MOC	International	9986713289	9986713289	9767453756	9767453756				03/09/2020 00:02:00	03/08/2020 23:02:00	60	Outgoing	Normal Release	Postpaid	177456192345717	9986713289	MSC5	1	0					1	1	1	Ericssion							false	false	0										
100038	62	4002	37	6496	185	CDR	MSC_0001241019_101112.txt	409944053	false	Voice	MOC	International	9986113287	9986113287	9369313756	9369313756				03/09/2020 07:05:00	03/09/2020 05:05:00	120	Outgoing	Normal Release	Prepaid	177456192345710	9986113287	MSC8	1	0					1	1	1	Ericssion							false	false	7										
100039	62	4002	38	6682	177	CDR	MSC_0001241019_101112.txt	1141545041	false	Voice	MTC	Local	9367453766	9367453766	9367453756	9367453756				03/09/2020 09:11:00	03/09/2020 08:11:00	60	Incoming	Normal Release	Postpaid	177456192345709	9367453766	MSC9	1	0					1	1	1	Ericssion							false	false	9										
100047	62	4002	46	8104	177	CDR	MSC_0001241019_101112.txt	1134165105	false	Voice	MTC	Local	9367453766	9367453766	9887453756	9887453756				03/09/2020 07:08:00	03/09/2020 06:30:00	38	Incoming	Normal Release	Postpaid	177456192345709	9367453766	MSC7	1	0					1	1	1	Ericssion							false	false	7										
100103	62	4002	102	18158	175	CDR	MSC_0001241019_101112.txt	589219535	false	Voice	MOC	NLD	9986173287	9986173287	9845300381	9845300381				03/09/2020 09:10:00	03/09/2020 07:50:00	80	Outgoing	Normal Release	Postpaid	177456192345714	9986173287	MSC4	1	0					1	1	1	Ericssion							false	false	9										
100189	62	4002	188	33627	186	CDR	MSC_0001241019_101112.txt	-1309860489	false	SMS	MT SMS	International	9345637669	9345637669	9367453756	9367453756				03/09/2020 07:12:00	03/09/2020 07:12:00	0	Incoming	Normal Release	Postpaid	177456192345708	9345637669	MSC10	1	0					1	1	1	Ericssion							false	false	7										
100199	62	4002	198	35447	186	CDR	MSC_0001241019_101112.txt	1468979547	false	SMS	MT SMS	International	9986713287	9986713287	9367853756	9367853756				03/09/2020 15:08:00	03/09/2020 15:08:00	0	Incoming	Normal Release	Postpaid	177456192345715	9986713287	MSC10	1	0					1	1	1	Ericssion							false	false	15										
100203	62	4002	202	36164	177	CDR	MSC_0001241019_101112.txt	-1259880681	false	SMS	MO SMS	Local	9345637669	9345637669	9367853756	9367853756				03/09/2020 21:05:00	03/09/2020 21:05:00	0	Outgoing	Normal Release	Postpaid	177456192345708	9345637669	MSC4	1	0					1	1	1	Ericssion							false	false	21										
100029	62	4002	28	4878	176	CDR	MSC_0001241019_101112.txt	740964660	false	Voice	MTC	Local	9986113288	9986113288	9767453756	9767453756				03/13/2020 03:02:00	03/13/2020 02:02:00	60	Incoming	Normal Release	Prepaid	177456192345711	9986113288	MSC9	1	0					1	1	1	Ericssion							false	false	3										
100050	62	4002	49	8645	185	CDR	MSC_0001241019_101112.txt	1825139578	false	Voice	MOC	International	9986713288	9986713288	9369313756	9369313756				03/13/2020 18:04:00	03/13/2020 17:04:00	60	Outgoing	Normal Release	Prepaid	177456192345716	9986713288	MSC10	1	0					1	1	1	Ericssion							false	false	18										
100082	62	4002	81	14385	175	CDR	MSC_0001241019_101112.txt	1497884465	false	Voice	MTC	NLD	9367453766	9367453766	9369313756	9369313756				03/13/2020 12:10:00	03/13/2020 11:10:00	60	Incoming	Normal Release	Postpaid	177456192345709	9367453766	MSC3	1	0					1	1	1	Ericssion							false	true	12										
100165	62	4002	164	29316	175	CDR	MSC_0001241019_101112.txt	770452175	false	SMS	MT SMS	NLD	9986113777	9986113777	9887453756	9887453756				03/13/2020 11:11:00	03/13/2020 11:11:00	0	Incoming	Normal Release	Postpaid	177456192345713	9986113777	MSC6	1	0					1	1	1	Ericssion							false	false	11										
100202	62	4002	201	35986	177	CDR	MSC_0001241019_101112.txt	-978721065	false	SMS	MT SMS	Local	9345637669	9345637669	9777453756	9777453756				03/13/2020 03:11:00	03/13/2020 03:11:00	0	Incoming	Normal Release	Postpaid	177456192345708	9345637669	MSC3	1	0					1	1	1	Ericssion							false	true	3										
100232	62	4002	231	41359	185	CDR	MSC_0001241019_101112.txt	773604691	false	SMS	MT SMS	International	9986113289	9986113289	9367873756	9367873756				03/13/2020 12:06:00	03/13/2020 12:06:00	0	Incoming	Normal Release	Postpaid	177456192345712	9986113289	MSC3	1	0					1	1	1	Ericssion							false	true	12										
100248	62	4002	247	44257	174	CDR	MSC_0001241019_101112.txt	740964660	false	MMS	MT MMS	NLD	9986113288	9986113288	9767453756	9767453756				03/13/2020 03:02:00	03/13/2020 03:02:00	0	Incoming	Normal Release	Prepaid	177456192345711	9986113288	MSC9	1	0					1	1	1	Ericssion							false	false	3										
100033	62	4002	32	5605	174	CDR	MSC_0001241019_101112.txt	-148175788	false	Voice	MTC	NLD	9986113288	9986113288	9845300379	9845300379				03/02/2020 20:03:00	03/02/2020 18:53:00	70	Incoming	Normal Release	Prepaid	177456192345711	9986113288	MSC3	1	0					1	1	1	Ericssion							false	true	20										
100057	62	4002	56	9910	176	CDR	MSC_0001241019_101112.txt	-216455404	false	Voice	MTC	Local	9986113288	9986113288	9777453756	9777453756				03/02/2020 01:05:00	03/02/2020 00:05:00	60	Incoming	Normal Release	Prepaid	177456192345711	9986113288	MSC7	1	0					1	1	1	Ericssion							false	false	1										
100079	62	4002	78	13838	185	CDR	MSC_0001241019_101112.txt	831418938	false	Voice	MOC	International	9986713288	9986713288	9887453756	9887453756				03/02/2020 06:02:00	03/02/2020 04:42:00	80	Outgoing	Normal Release	Prepaid	177456192345716	9986713288	MSC10	1	0					1	1	1	Ericssion							false	false	6										
100097	62	4002	96	17065	175	CDR	MSC_0001241019_101112.txt	-37240529	false	Voice	MTC	NLD	9986173287	9986173287	9367453756	9367453756				03/02/2020 03:09:00	03/02/2020 01:49:00	80	Incoming	Normal Release	Postpaid	177456192345714	9986173287	MSC8	1	0					1	1	1	Ericssion							false	false	3										
100154	62	4002	153	27351	175	CDR	MSC_0001241019_101112.txt	-169535757	false	SMS	MT SMS	NLD	9986113289	9986113289	9777453756	9777453756				03/02/2020 14:07:00	03/02/2020 14:07:00	0	Incoming	Normal Release	Postpaid	177456192345712	9986113289	MSC5	1	0					1	1	1	Ericssion							false	false	14										
100155	62	4002	154	27527	176	CDR	MSC_0001241019_101112.txt	-166295947	false	SMS	MO SMS	Local	9986113287	9986113287	9777453756	9777453756				03/02/2020 15:01:00	03/02/2020 15:01:00	0	Outgoing	Normal Release	Prepaid	177456192345710	9986113287	MSC6	1	0					1	1	1	Ericssion							false	false	15										
100161	62	4002	160	28598	177	CDR	MSC_0001241019_101112.txt	856739609	false	SMS	MO SMS	Local	9986713289	9986713289	9845300379	9845300379				03/02/2020 13:04:00	03/02/2020 13:04:00	0	Outgoing	Normal Release	Postpaid	177456192345717	9986713289	MSC2	1	0					1	1	1	Ericssion							false	false	13										
100178	62	4002	177	31636	185	CDR	MSC_0001241019_101112.txt	-183875181	false	SMS	MO SMS	International	9986113289	9986113289	9367873756	9367873756				03/02/2020 10:08:00	03/02/2020 10:08:00	0	Outgoing	Normal Release	Postpaid	177456192345712	9986113289	MSC9	1	0					1	1	1	Ericssion							false	false	10										
100208	62	4002	207	37057	175	CDR	MSC_0001241019_101112.txt	-198367249	false	SMS	MO SMS	NLD	9986113777	9986113777	9367453756	9367453756				03/02/2020 06:04:00	03/02/2020 06:04:00	0	Outgoing	Normal Release	Postpaid	177456192345713	9986113777	MSC9	1	0					1	1	1	Ericssion							false	false	6										
100244	62	4002	243	43540	177	CDR	MSC_0001241019_101112.txt	-205475693	false	MMS	MO MMS	Local	9986113289	9986113289	9887453756	9887453756				03/02/2020 04:08:00	03/02/2020 04:08:00	0	Outgoing	Normal Release	Postpaid	177456192345712	9986113289	MSC5	1	0					1	1	1	Ericssion							false	false	4										
100253	62	4002	252	45150	174	CDR	MSC_0001241019_101112.txt	1659277683	false	Voice	MTC	NLD	9976113277	9976113277	9745300379	9745300379				03/02/2020 20:03:00	03/02/2020 18:53:00	70	Incoming	Normal Release	Prepaid	177456192345711	9986113288	MSC3	1	0					1	1	1	Ericssion							false	true	20										
100053	62	4002	52	9183	185	CDR	MSC_0001241019_101112.txt	1899319472	false	Voice	MTC	International	9986173287	9986173287	9367873756	9367873756				03/24/2020 13:05:00	03/24/2020 12:05:00	60	Incoming	Normal Release	Postpaid	177456192345714	9986173287	MSC3	1	0					1	1	1	Ericssion							false	true	13										
100152	62	4002	151	26990	184	CDR	MSC_0001241019_101112.txt	-1544387717	false	SMS	MT SMS	International	9986713288	9986713288	9777453756	9777453756				03/24/2020 11:08:00	03/24/2020 11:08:00	0	Incoming	Normal Release	Prepaid	177456192345716	9986713288	MSC3	1	0					1	1	1	Ericssion							false	true	11										
100163	62	4002	162	28962	177	CDR	MSC_0001241019_101112.txt	-21720680	false	SMS	MO SMS	Local	9345637669	9345637669	7734140377	7734140377				03/24/2020 05:01:00	03/24/2020 05:01:00	0	Outgoing	Normal Release	Postpaid	177456192345708	9345637669	MSC4	1	0					1	1	1	Ericssion							false	false	5										
100188	62	4002	187	33450	176	CDR	MSC_0001241019_101112.txt	1705704054	false	SMS	MT SMS	Local	9986113287	9986113287	9887453756	9887453756				03/24/2020 07:01:00	03/24/2020 07:01:00	0	Incoming	Normal Release	Prepaid	177456192345710	9986113287	MSC9	1	0					1	1	1	Ericssion							false	false	7										
100191	62	4002	190	34000	185	CDR	MSC_0001241019_101112.txt	-21720680	false	SMS	MO SMS	International	9345637669	9345637669	9369313756	9369313756				03/24/2020 05:01:00	03/24/2020 05:01:00	0	Outgoing	Normal Release	Postpaid	177456192345708	9345637669	MSC2	1	0					1	1	1	Ericssion							false	false	5										
100209	62	4002	208	37233	176	CDR	MSC_0001241019_101112.txt	-1526628198	false	SMS	MO SMS	NLD	9986713289	9986713289	9367453756	9367453756				03/24/2020 16:04:00	03/24/2020 16:04:00	0	Outgoing	Normal Release	Postpaid	177456192345717	9986713289	MSC10	1	0					1	1	1	Ericssion							false	false	16										
100230	62	4002	229	41003	177	CDR	MSC_0001241019_101112.txt	-1573127940	false	SMS	MT SMS	Local	9986713287	9986713287	9845300379	9845300379				03/24/2020 03:09:00	03/24/2020 03:09:00	0	Incoming	Normal Release	Postpaid	177456192345715	9986713287	MSC1	1	0					1	1	1	Ericssion							false	false	3										
100255	62	4002	254	45502	185	CDR	MSC_0001241019_101112.txt	-588194322	false	Voice	MTC	International	9976173277	9976173277	9367773756	9367773756				03/24/2020 13:05:00	03/24/2020 12:05:00	60	Incoming	Normal Release	Postpaid	177456192345714	9986173287	MSC3	1	0					1	1	1	Ericssion							false	true	13										
100041	62	4002	40	7037	186	CDR	MSC_0001241019_101112.txt	1479112623	false	Voice	MTC	International	9986113777	9986113777	9367453756	9367453756				03/21/2020 16:02:00	03/21/2020 14:02:00	120	Incoming	Normal Release	Postpaid	177456192345713	9986113777	MSC1	1	0					1	1	1	Ericssion							false	false	16										
100071	62	4002	70	12407	177	CDR	MSC_0001241019_101112.txt	1500564179	false	Voice	MOC	Local	9986113289	9986113289	9367873756	9367873756				03/21/2020 22:02:00	03/21/2020 20:42:00	80	Outgoing	Normal Release	Postpaid	177456192345712	9986113289	MSC2	1	0					1	1	1	Ericssion							false	false	22										
100072	62	4002	71	12585	175	CDR	MSC_0001241019_101112.txt	1432852175	false	Voice	MTC	NLD	9986113777	9986113777	9845300379	9845300379				03/21/2020 03:11:00	03/21/2020 02:33:00	38	Incoming	Normal Release	Postpaid	177456192345713	9986113777	MSC3	1	0					1	1	1	Ericssion							false	true	3										
100080	62	4002	79	14024	184	CDR	MSC_0001241019_101112.txt	-1824948230	false	Voice	MOC	International	9986713288	9986713288	9845300379	9845300379				03/21/2020 05:12:00	03/21/2020 03:52:00	80	Outgoing	Normal Release	Prepaid	177456192345716	9986713288	MSC1	1	0					1	1	1	Ericssion							false	false	5										
100122	62	4002	121	21589	176	CDR	MSC_0001241019_101112.txt	-1810607782	false	Voice	MTC	Local	9986713288	9986713288	9367873756	9367873756				03/21/2020 09:11:00	03/21/2020 08:11:00	60	Incoming	Normal Release	Prepaid	177456192345716	9986713288	MSC3	1	0					1	1	1	Ericssion							false	true	9										
100143	62	4002	142	25369	177	CDR	MSC_0001241019_101112.txt	-1828728391	false	Voice	MTC	Local	9986713289	9986713289	9845300381	9845300381				03/21/2020 04:09:00	03/21/2020 03:09:00	60	Incoming	Normal Release	Postpaid	177456192345717	9986713289	MSC4	1	0					1	1	1	Ericssion							false	false	4										
100168	62	4002	167	29846	185	CDR	MSC_0001241019_101112.txt	-1836167879	false	SMS	MO SMS	International	9986713289	9986713289	9767453756	9767453756				03/21/2020 02:05:00	03/21/2020 02:05:00	0	Outgoing	Normal Release	Postpaid	177456192345717	9986713289	MSC9	1	0					1	1	1	Ericssion							false	false	2										
100171	62	4002	170	30387	176	CDR	MSC_0001241019_101112.txt	1443444629	false	SMS	MT SMS	Local	9986113287	9986113287	7734140377	7734140377				03/21/2020 06:10:00	03/21/2020 06:10:00	0	Incoming	Normal Release	Prepaid	177456192345710	9986113287	MSC2	1	0					1	1	1	Ericssion							false	false	6										
100221	62	4002	220	39370	184	CDR	MSC_0001241019_101112.txt	1432344053	false	SMS	MO SMS	International	9986113287	9986113287	9845300381	9845300381				03/21/2020 03:05:00	03/21/2020 03:05:00	0	Outgoing	Normal Release	Prepaid	177456192345710	9986113287	MSC2	1	0					1	1	1	Ericssion							false	false	3										
100257	62	4002	256	45865	175	CDR	MSC_0001241019_101112.txt	-1054660658	false	Voice	MTC	NLD	9976113777	9976113777	9745300379	9745300379				03/21/2020 03:11:00	03/21/2020 02:33:00	38	Incoming	Normal Release	Postpaid	177456192345713	9986113777	MSC3	1	0					1	1	1	Ericssion							false	true	3										
100052	62	4002	51	9007	175	CDR	MSC_0001241019_101112.txt	866299663	false	Voice	MTC	NLD	9986173287	9986173287	9767453756	9767453756				03/12/2020 14:08:00	03/12/2020 13:08:00	60	Incoming	Normal Release	Postpaid	177456192345714	9986173287	MSC2	1	0					1	1	1	Ericssion							false	false	14										
100116	62	4002	115	20516	184	CDR	MSC_0001241019_101112.txt	661884757	false	Voice	MTC	International	9986113287	9986113287	9777453756	9777453756				03/12/2020 05:04:00	03/12/2020 04:04:00	60	Incoming	Normal Release	Prepaid	177456192345710	9986113287	MSC7	1	0					1	1	1	Ericssion							false	false	5										
100128	62	4002	127	22673	184	CDR	MSC_0001241019_101112.txt	658464693	false	Voice	MTC	International	9986113287	9986113287	9367873756	9367873756				03/12/2020 04:07:00	03/12/2020 02:57:00	70	Incoming	Normal Release	Prepaid	177456192345710	9986113287	MSC9	1	0					1	1	1	Ericssion							false	false	4										
100130	62	4002	129	23037	185	CDR	MSC_0001241019_101112.txt	1746238843	false	Voice	MTC	International	9986713287	9986713287	9845300381	9845300381				03/12/2020 20:09:00	03/12/2020 19:09:00	60	Incoming	Normal Release	Postpaid	177456192345715	9986713287	MSC1	1	0					1	1	1	Ericssion							false	false	20										
100153	62	4002	152	27175	175	CDR	MSC_0001241019_101112.txt	869718959	false	SMS	MT SMS	NLD	9986173287	9986173287	9845300381	9845300381				03/12/2020 15:05:00	03/12/2020 15:05:00	0	Incoming	Normal Release	Postpaid	177456192345714	9986173287	MSC4	1	0					1	1	1	Ericssion							false	false	15										
100176	62	4002	175	31282	177	CDR	MSC_0001241019_101112.txt	701964819	false	SMS	MO SMS	Local	9986113289	9986113289	9367873756	9367873756				03/12/2020 16:12:00	03/12/2020 16:12:00	0	Outgoing	Normal Release	Postpaid	177456192345712	9986113289	MSC7	1	0					1	1	1	Ericssion							false	false	16										
100185	62	4002	184	32918	175	CDR	MSC_0001241019_101112.txt	876799087	false	SMS	MT SMS	NLD	9986173287	9986173287	7734140377	7734140377				03/12/2020 17:03:00	03/12/2020 17:03:00	0	Incoming	Normal Release	Postpaid	177456192345714	9986173287	MSC6	1	0					1	1	1	Ericssion							false	false	17										
100197	62	4002	196	35086	175	CDR	MSC_0001241019_101112.txt	-997261129	false	SMS	MO SMS	NLD	9345637669	9345637669	9777453756	9777453756				03/12/2020 22:02:00	03/12/2020 22:02:00	0	Outgoing	Normal Release	Postpaid	177456192345708	9345637669	MSC8	1	0					1	1	1	Ericssion							false	false	22										
100054	62	4002	53	9369	174	CDR	MSC_0001241019_101112.txt	1334964629	false	Voice	MTC	NLD	9986113287	9986113287	9367873756	9367873756				03/20/2020 00:02:00	03/19/2020 23:02:00	60	Incoming	Normal Release	Prepaid	177456192345710	9986113287	MSC4	1	0					1	1	1	Ericssion							false	false	0										
100085	62	4002	84	14915	176	CDR	MSC_0001241019_101112.txt	1356504053	false	Voice	MTC	Local	9986113287	9986113287	9367453756	9367453756				03/20/2020 06:01:00	03/20/2020 04:51:00	70	Incoming	Normal Release	Prepaid	177456192345710	9986113287	MSC6	1	0					1	1	1	Ericssion							false	false	6										
100110	62	4002	109	19434	184	CDR	MSC_0001241019_101112.txt	2105925105	false	Voice	CF	International	9367453766	9367453766	9367853756	9367853756				03/20/2020 13:04:00	03/20/2020 11:44:00	80	Outgoing	Normal Release	Postpaid	177456192345709	9367453766	MSC1	1	0					1	1	1	Ericssion							false	false	13										
100121	62	4002	120	21412	176	CDR	MSC_0001241019_101112.txt	1339164276	false	Voice	MTC	Local	9986113288	9986113288	7734140377	7734140377				03/20/2020 01:12:00	03/19/2020 23:52:00	80	Incoming	Normal Release	Prepaid	177456192345711	9986113288	MSC2	1	0					1	1	1	Ericssion							false	false	1										
100131	62	4002	130	23223	175	CDR	MSC_0001241019_101112.txt	1342252047	false	Voice	MOC	NLD	9986113777	9986113777	9367873756	9367873756				03/20/2020 02:01:00	03/20/2020 00:51:00	70	Outgoing	Normal Release	Postpaid	177456192345713	9986113777	MSC2	1	0					1	1	1	Ericssion							false	false	2										
100160	62	4002	159	28421	176	CDR	MSC_0001241019_101112.txt	1414584596	false	SMS	MT SMS	Local	9986113288	9986113288	9777453756	9777453756				03/20/2020 22:09:00	03/20/2020 22:09:00	0	Incoming	Normal Release	Prepaid	177456192345711	9986113288	MSC1	1	0					1	1	1	Ericssion							false	false	22										
100175	62	4002	174	31096	185	CDR	MSC_0001241019_101112.txt	-1857407813	false	SMS	MO SMS	International	9986713287	9986713287	9845300381	9845300381				03/20/2020 20:11:00	03/20/2020 20:11:00	0	Outgoing	Normal Release	Postpaid	177456192345715	9986713287	MSC6	1	0					1	1	1	Ericssion							false	false	20										
100184	62	4002	183	32732	185	CDR	MSC_0001241019_101112.txt	1575379023	false	SMS	MT SMS	International	9986173287	9986173287	9777453756	9777453756				03/20/2020 19:06:00	03/20/2020 19:06:00	0	Incoming	Normal Release	Postpaid	177456192345714	9986173287	MSC5	1	0					1	1	1	Ericssion							false	false	19										
100217	62	4002	216	38653	185	CDR	MSC_0001241019_101112.txt	1346184627	false	SMS	MT SMS	International	9986113289	9986113289	9845300381	9845300381				03/20/2020 03:09:00	03/20/2020 03:09:00	0	Incoming	Normal Release	Postpaid	177456192345712	9986113289	MSC8	1	0					1	1	1	Ericssion							false	false	3										
100059	62	4002	58	10263	177	CDR	MSC_0001241019_101112.txt	208798936	false	Voice	MOC	Local	9345637669	9345637669	9887453756	9887453756				03/26/2020 21:03:00	03/26/2020 19:43:00	80	Outgoing	Normal Release	Postpaid	177456192345708	9345637669	MSC9	1	0					1	1	1	Ericssion							false	false	21										
100073	62	4002	72	12761	178	CDR	MSC_0001241019_101112.txt	2058019536	false	Voice	MTC	Local	9986173287	9986173287	9367873756	9367873756				03/26/2020 09:10:00	03/26/2020 07:10:00	120	Incoming	Normal Release	Postpaid	177456192345714	9986173287	MSC4	1	0					1	1	1	Ericssion							false	false	9										
100172	62	4002	171	30564	177	CDR	MSC_0001241019_101112.txt	1900524308	false	SMS	MO SMS	Local	9986113289	9986113289	9367853756	9367853756				03/26/2020 13:08:00	03/26/2020 13:08:00	0	Outgoing	Normal Release	Postpaid	177456192345712	9986113289	MSC3	1	0					1	1	1	Ericssion							false	true	13										
100173	62	4002	172	30742	176	CDR	MSC_0001241019_101112.txt	1864104054	false	SMS	MO SMS	Local	9986113287	9986113287	9845300379	9845300379				03/26/2020 03:01:00	03/26/2020 03:01:00	0	Outgoing	Normal Release	Prepaid	177456192345710	9986113287	MSC4	1	0					1	1	1	Ericssion							false	false	3										
100181	62	4002	180	32185	175	CDR	MSC_0001241019_101112.txt	-1361148388	false	SMS	MO SMS	NLD	9986713287	9986713287	9845300379	9845300379				03/26/2020 14:02:00	03/26/2020 14:02:00	0	Outgoing	Normal Release	Postpaid	177456192345715	9986713287	MSC2	1	0					1	1	1	Ericssion							false	false	14										
100194	62	4002	193	34548	175	CDR	MSC_0001241019_101112.txt	1922332560	false	SMS	MT SMS	NLD	9986113777	9986113777	9887453756	9887453756				03/26/2020 19:09:00	03/26/2020 19:09:00	0	Incoming	Normal Release	Postpaid	177456192345713	9986113777	MSC5	1	0					1	1	1	Ericssion							false	false	19										
100210	62	4002	209	37410	175	CDR	MSC_0001241019_101112.txt	-1684562702	false	SMS	MT SMS	NLD	9367453766	9367453766	9369313756	9369313756				03/26/2020 09:12:00	03/26/2020 09:12:00	0	Incoming	Normal Release	Postpaid	177456192345709	9367453766	MSC1	1	0					1	1	1	Ericssion							false	false	9										
100239	62	4002	238	42634	186	CDR	MSC_0001241019_101112.txt	-1350407940	false	SMS	MO SMS	International	9986713287	9986713287	9887453756	9887453756				03/26/2020 17:01:00	03/26/2020 17:01:00	0	Outgoing	Normal Release	Postpaid	177456192345715	9986713287	MSC10	1	0					1	1	1	Ericssion							false	false	17										
100060	62	4002	59	10441	178	CDR	MSC_0001241019_101112.txt	1940384401	false	Voice	MOC	Local	9367453766	9367453766	9767453756	9767453756				03/18/2020 15:05:00	03/18/2020 14:05:00	60	Outgoing	Normal Release	Postpaid	177456192345709	9367453766	MSC10	1	0					1	1	1	Ericssion							false	false	15										
100077	62	4002	76	13477	184	CDR	MSC_0001241019_101112.txt	-2059368422	false	Voice	MTC	International	9986713288	9986713288	9369313756	9369313756				03/18/2020 12:05:00	03/18/2020 10:45:00	80	Incoming	Normal Release	Prepaid	177456192345716	9986713288	MSC8	1	0					1	1	1	Ericssion							false	false	12										
100123	62	4002	122	21766	174	CDR	MSC_0001241019_101112.txt	-2037587718	false	Voice	MOC	NLD	9986713288	9986713288	9767453756	9767453756				03/18/2020 18:08:00	03/18/2020 16:48:00	80	Outgoing	Normal Release	Prepaid	177456192345716	9986713288	MSC4	1	0					1	1	1	Ericssion							false	false	18										
100126	62	4002	125	22302	185	CDR	MSC_0001241019_101112.txt	-528960553	false	Voice	MOC	International	9345637669	9345637669	9777453756	9777453756				03/18/2020 08:07:00	03/18/2020 07:29:00	38	Outgoing	Normal Release	Postpaid	177456192345708	9345637669	MSC7	1	0					1	1	1	Ericssion							false	false	8										
100134	62	4002	133	23770	175	CDR	MSC_0001241019_101112.txt	-2084507877	false	Voice	MTC	NLD	9986713287	9986713287	9887453756	9887453756				03/18/2020 05:06:00	03/18/2020 04:06:00	60	Incoming	Normal Release	Postpaid	177456192345715	9986713287	MSC5	1	0					1	1	1	Ericssion							false	false	5										
100147	62	4002	146	26098	174	CDR	MSC_0001241019_101112.txt	1183704084	false	Voice	MTC	NLD	9986113288	9986113288	9845300381	9845300381				03/18/2020 06:01:00	03/18/2020 05:01:00	60	Incoming	Normal Release	Prepaid	177456192345711	9986113288	MSC8	1	0					1	1	1	Ericssion							false	false	6										
100063	62	4002	62	10973	176	CDR	MSC_0001241019_101112.txt	917939578	false	Voice	MOC	Local	9986713288	9986713288	9845300381	9845300381				03/03/2020 06:04:00	03/03/2020 05:04:00	60	Outgoing	Normal Release	Prepaid	177456192345716	9986713288	MSC3	1	0					1	1	1	Ericssion							false	true	6										
100187	62	4002	186	33272	177	CDR	MSC_0001241019_101112.txt	619605105	false	SMS	MO SMS	Local	9367453766	9367453766	9367453756	9367453756				03/03/2020 08:12:00	03/03/2020 08:12:00	0	Outgoing	Normal Release	Postpaid	177456192345709	9367453766	MSC8	1	0					1	1	1	Ericssion							false	false	8										
100190	62	4002	189	33814	185	CDR	MSC_0001241019_101112.txt	-68287761	false	SMS	MO SMS	International	9986113777	9986113777	9845300381	9845300381				03/03/2020 18:12:00	03/03/2020 18:12:00	0	Outgoing	Normal Release	Postpaid	177456192345713	9986113777	MSC1	1	0					1	1	1	Ericssion							false	false	18										
100196	62	4002	195	34900	185	CDR	MSC_0001241019_101112.txt	968459419	false	SMS	MT SMS	International	9986713287	9986713287	9367453756	9367453756				03/03/2020 20:06:00	03/03/2020 20:06:00	0	Incoming	Normal Release	Postpaid	177456192345715	9986713287	MSC7	1	0					1	1	1	Ericssion							false	false	20										
100231	62	4002	230	41181	177	CDR	MSC_0001241019_101112.txt	-100687761	false	SMS	MO SMS	Local	9986113777	9986113777	9367853756	9367853756				03/03/2020 09:12:00	03/03/2020 09:12:00	0	Outgoing	Normal Release	Postpaid	177456192345713	9986113777	MSC2	1	0					1	1	1	Ericssion							false	false	9										
100256	62	4002	255	45688	176	CDR	MSC_0001241019_101112.txt	-1569574247	false	Voice	MTC	Local	9976713277	9976713277	9745300371	9745300371				03/03/2020 06:04:00	03/03/2020 05:04:00	60	Outgoing	Normal Release	Prepaid	177456192345716	9986713288	MSC3	1	0					1	1	1	Ericssion							false	true	6										
100081	62	4002	80	14209	175	CDR	MSC_0001241019_101112.txt	1830739024	false	Voice	MTC	NLD	9986173287	9986173287	7734140377	7734140377				03/23/2020 18:02:00	03/23/2020 16:42:00	80	Incoming	Normal Release	Postpaid	177456192345714	9986173287	MSC2	1	0					1	1	1	Ericssion							false	false	18										
100109	62	4002	108	19248	185	CDR	MSC_0001241019_101112.txt	1601724789	false	Voice	CF	International	9986113288	9986113288	9777453756	9777453756				03/23/2020 02:08:00	03/23/2020 00:08:00	120	Outgoing	Normal Release	Prepaid	177456192345711	9986113288	MSC10	1	0					1	1	1	Ericssion							false	false	2										
100101	62	4002	100	17792	178	CDR	MSC_0001241019_101112.txt	-1976327879	false	Voice	MTC	Local	9986713289	9986713289	9845300379	9845300379				03/19/2020 11:09:00	03/19/2020 09:09:00	120	Incoming	Normal Release	Postpaid	177456192345717	9986713289	MSC2	1	0					1	1	1	Ericssion							false	false	11										
100127	62	4002	126	22488	184	CDR	MSC_0001241019_101112.txt	1273764629	false	Voice	MTC	International	9986113287	9986113287	9369313756	9369313756				03/19/2020 07:02:00	03/19/2020 06:24:00	38	Incoming	Normal Release	Prepaid	177456192345710	9986113287	MSC8	1	0					1	1	1	Ericssion							false	false	7										
100144	62	4002	143	25547	186	CDR	MSC_0001241019_101112.txt	1277604691	false	Voice	MOC	International	9986113289	9986113289	9887453756	9887453756				03/19/2020 08:06:00	03/19/2020 06:06:00	120	Outgoing	Normal Release	Postpaid	177456192345712	9986113289	MSC5	1	0					1	1	1	Ericssion							false	false	8										
100159	62	4002	158	28242	178	CDR	MSC_0001241019_101112.txt	1256272751	false	SMS	MT SMS	Local	9986113777	9986113777	9367853756	9367853756				03/19/2020 02:08:00	03/19/2020 02:08:00	0	Incoming	Normal Release	Postpaid	177456192345713	9986113777	MSC10	1	0					1	1	1	Ericssion							false	false	2										
100177	62	4002	176	31460	175	CDR	MSC_0001241019_101112.txt	1303164819	false	SMS	MO SMS	NLD	9986113289	9986113289	9845300381	9845300381				03/19/2020 15:12:00	03/19/2020 15:12:00	0	Outgoing	Normal Release	Postpaid	177456192345712	9986113289	MSC8	1	0					1	1	1	Ericssion							false	false	15										
100224	62	4002	223	39919	184	CDR	MSC_0001241019_101112.txt	1270224693	false	SMS	MT SMS	International	9986113287	9986113287	9367873756	9367873756				03/19/2020 06:03:00	03/19/2020 06:03:00	0	Incoming	Normal Release	Prepaid	177456192345710	9986113287	MSC5	1	0					1	1	1	Ericssion							false	false	6										
100227	62	4002	226	40455	185	CDR	MSC_0001241019_101112.txt	-1997748261	false	SMS	MT SMS	International	9986713287	9986713287	9767453756	9767453756				03/19/2020 05:12:00	03/19/2020 05:12:00	0	Incoming	Normal Release	Postpaid	177456192345715	9986713287	MSC8	1	0					1	1	1	Ericssion							false	false	5										
100245	62	4002	244	43718	185	CDR	MSC_0001241019_101112.txt	-1951548327	false	MMS	MT MMS	International	9986713289	9986713289	9777453756	9777453756				03/19/2020 18:02:00	03/19/2020 18:02:00	0	Incoming	Normal Release	Postpaid	177456192345717	9986713289	MSC6	1	0					1	1	1	Ericssion							false	false	18										
100135	62	4002	134	23946	175	CDR	MSC_0001241019_101112.txt	68638936	false	Voice	MTC	NLD	9345637669	9345637669	9845300381	9845300381				03/25/2020 06:07:00	03/25/2020 05:07:00	60	Incoming	Normal Release	Postpaid	177456192345708	9345637669	MSC6	1	0					1	1	1	Ericssion							false	false	6										
100137	62	4002	136	24300	177	CDR	MSC_0001241019_101112.txt	-1415087812	false	Voice	MOC	Local	9986713287	9986713287	9367853756	9367853756				03/25/2020 23:03:00	03/25/2020 22:03:00	60	Outgoing	Normal Release	Postpaid	177456192345715	9986713287	MSC8	1	0					1	1	1	Ericssion							false	false	23										
100145	62	4002	144	25734	177	CDR	MSC_0001241019_101112.txt	-1764122830	false	Voice	MTC	Local	9367453766	9367453766	9887453756	9887453756				03/25/2020 11:06:00	03/25/2020 09:56:00	70	Incoming	Normal Release	Postpaid	177456192345709	9367453766	MSC6	1	0					1	1	1	Ericssion							false	false	11										
100174	62	4002	173	30919	176	CDR	MSC_0001241019_101112.txt	1839444118	false	SMS	MT SMS	Local	9986113287	9986113287	9367873756	9367873756				03/25/2020 20:10:00	03/25/2020 20:10:00	0	Incoming	Normal Release	Prepaid	177456192345710	9986113287	MSC5	1	0					1	1	1	Ericssion							false	false	20										
100211	62	4002	210	37586	174	CDR	MSC_0001241019_101112.txt	1785504694	false	SMS	MO SMS	NLD	9986113287	9986113287	9845300379	9845300379				03/25/2020 05:11:00	03/25/2020 05:11:00	0	Outgoing	Normal Release	Prepaid	177456192345710	9986113287	MSC2	1	0					1	1	1	Ericssion							false	false	5										
100225	62	4002	224	40104	174	CDR	MSC_0001241019_101112.txt	1785024182	false	SMS	MT SMS	NLD	9986113287	9986113287	9777453756	9777453756				03/25/2020 05:03:00	03/25/2020 05:03:00	0	Incoming	Normal Release	Prepaid	177456192345710	9986113287	MSC6	1	0					1	1	1	Ericssion							false	false	5										


Context Information
Export Type: 	All Rows
Exported by: 	Root ( System Root )
Exported on: 	05/20/2020 17:02:45
Search Screen Name: 	Usage Sql Table Search
Search Screen Caption: 	MSC Fingerprint
Search Filters: 
Include: 	Non Deleted Items
Sql Query : select  msc.msc_id, 
        msc.sts_id, 
        msc.sfl_id, 
        msc.msc_record_no, 
        msc.msc_record_address, 
        msc.msc_record_length, 
        msc.msc_record_type, 
        msc.msc_filename, 
        msc.msc_duplicate_hashcode, 
        msc.msc_duplicate_fl, 
        msc.msc_event_type, 
        msc.msc_rec_type_name, 
        msc.msc_call_type, 
        msc.msc_a_number, 
        msc.msc_a_number_normalized, 
        msc.msc_b_number, 
        msc.msc_b_number_normalized, 
        msc.msc_c_number, 
        msc.msc_c_number_normalized, 
        msc.msc_roaming_number, 
        msc.msc_start_dttm, 
        msc.msc_end_dttm, 
        msc.msc_duration, 
        msc.msc_call_direction, 
        msc.msc_call_status, 
        msc.msc_subscriber_type, 
        msc.msc_imsi, 
        msc.msc_imei, 
        msc.msc_address, 
        msc.msc_record_sequence_no, 
        msc.msc_ldc_indicator, 
        msc.msc_ldc_sequence_no, 
        msc.msc_ldc_correlation_id, 
        msc.msc_ldc_status, 
        msc.msc_ldc_tag, 
        msc.msc_bearer_service, 
        msc.msc_cell_id, 
        msc.msc_roaming_partner, 
        msc.msc_switch_name, 
        msc.msc_inc_route, 
        msc.msc_inc_operator_name, 
        msc.msc_out_route, 
        msc.msc_out_operator_name, 
        msc.msc_smsc_address, 
        msc.msc_lrn, 
        msc.msc_is_interconnect, 
        msc.msc_is_roaming, 
        msc.msc_part_key, 
        msc.msc_extra1, 
        msc.msc_extra2, 
        msc.msc_extra3, 
        msc.msc_extra4, 
        msc.msc_extra5, 
        msc.msc_extra6, 
        msc.msc_extra7, 
        msc.msc_extra8, 
        msc.msc_extra9, 
        msc.msc_extra10
from    msc_fingerprint msc
where   msc.msc_start_dttm >= 2020-03-01 00:00:00
and     msc.msc_start_dttm <= 2020-03-31 23:59:59
